{"type": "FeatureCollection", "features": [{"type": "Feature", "properties": {"z0_m": 10.0}, "geometry": {"type": "LineString", "coordinates": [[-113.3617542815459, 53.544781878033916], [-113.3652287018139, 53.54495389951418], [-113.36861977931787, 53.545130566493796], [-113.37204184190773, 53.545303899738165], [-113.37545709879717, 53.545469096702256], [-113.37885342246635, 53.54565796221955], [-113.38228407208209, 53.54585304668186], [-113.38566160211369, 53.546047922307416], [-113.38902794678873, 53.54624346303484], [-113.39240370525624, 53.54644896774536], [-113.39579840894545, 53.54667199865692], [-113.39914070006111, 53.54689219483194], [-113.4025308920525, 53.54711382531561], [-113.40586834516463, 53.54735021646953], [-113.40918455153245, 53.54757362431756], [-113.4124618114566, 53.547824524424506], [-113.41577239062111, 53.54808548409921], [-113.41906917937888, 53.54833356010015], [-113.42236078341726, 53.54863045772512], [-113.42563893438482, 53.5489101920047], [-113.4289145447213, 53.54919672627282], [-113.43215566869975, 53.54949717017995], [-113.43539346440426, 53.549809133890264], [-113.43862927044115, 53.550134779415394], [-113.44186832807773, 53.55048005642269], [-113.44513974015739, 53.550823994967374], [-113.44833538614769, 53.55121411941807], [-113.451532718, 53.55158275524478], [-113.45477341145083, 53.551935069351096], [-113.45804556843709, 53.55223974014759], [-113.46128497423575, 53.55259570507153], [-113.46450433503007, 53.55294298612562], [-113.46768644221268, 53.553315138826726], [-113.47087300217808, 53.55370452161414], [-113.4741179532857, 53.55406410284619], [-113.4772880863507, 53.55443911121667], [-113.48045497161026, 53.55480494326188], [-113.4835809654863, 53.55519544312456], [-113.4867033984808, 53.55559945225788], [-113.48977332280839, 53.55600180466397], [-113.4928434883636, 53.55640737030236], [-113.49594191331043, 53.55681800961093], [-113.499110870692, 53.55723997343528], [-113.50224916741395, 53.55767027002843], [-113.50541021917823, 53.55811181151171], [-113.50855204856538, 53.55856099755368], [-113.51170647881506, 53.55901227465338], [-113.51485191769886, 53.55946796031937], [-113.51796958785941, 53.559954761561], [-113.52112392104851, 53.56045171596871], [-113.52423582425787, 53.560962823138986], [-113.52739962664744, 53.5614538225723], [-113.53053459352168, 53.56195703175891], [-113.53367480140247, 53.56245565919429], [-113.53682063318139, 53.562971189545486], [-113.53988199211203, 53.56349850247752], [-113.54302733864664, 53.56403601463011], [-113.5461775015877, 53.56457559602356], [-113.5493145079262, 53.56511616557411], [-113.55247912698078, 53.565660521996676], [-113.55559146385085, 53.566195661771495], [-113.55867146107421, 53.56671672318866], [-113.56170448397303, 53.56725252348169], [-113.56478575176111, 53.56781195798842], [-113.56791682721125, 53.5683786455641], [-113.57099585636456, 53.568949108220025], [-113.57414055097992, 53.569529112168745], [-113.57721336329567, 53.57009331040158], [-113.58030450492862, 53.57067119133092], [-113.58337897645343, 53.57126344024926], [-113.58643811941846, 53.57183624892908], [-113.58953646410112, 53.57240403845921], [-113.59256809736651, 53.573021649578024], [-113.59558597604749, 53.5735923636144], [-113.59868242188735, 53.57418376203609], [-113.60177311395091, 53.5747743903665], [-113.60487742760343, 53.57536194855735], [-113.60796383754695, 53.57598033583676], [-113.61100530954805, 53.5765994631207], [-113.61403179941487, 53.57721268255276], [-113.61707306789943, 53.57784644454698], [-113.6201309186024, 53.57845353355513], [-113.62324755572554, 53.57908372629238], [-113.62638352474852, 53.57970762066785], [-113.62948054160792, 53.580343330913145], [-113.63257001709698, 53.5809875173203], [-113.63568726588778, 53.58164126335584], [-113.63881774280571, 53.58227313879866], [-113.6419358805917, 53.582889123022554], [-113.64505094529702, 53.583505838949606], [-113.64816180503207, 53.58411144946574], [-113.65133088765474, 53.58473544943228], [-113.65445620838254, 53.585371920919634], [-113.65765975015539, 53.58600333123745], [-113.66082499233829, 53.586634111030996], [-113.66399193834823, 53.58725339146215], [-113.66718145733432, 53.587865070587476], [-113.67035311124151, 53.58845846377359], [-113.67347874131612, 53.589048743972704], [-113.67662980026134, 53.58964894987311], [-113.6797920424588, 53.59024524366404], [-113.68290068539727, 53.590860225744734], [-113.68604063687245, 53.591461137032944], [-113.68918324572773, 53.59206899242407], [-113.69233760852852, 53.59265860316251], [-113.69550650689725, 53.593235867961425], [-113.69865120091441, 53.59384357234903], [-113.70182429264678, 53.59448485630507], [-113.70495597403361, 53.59509346827308], [-113.70806085257058, 53.5957118233882], [-113.71121611894468, 53.59629431094201], [-113.71438625835678, 53.59685764581716], [-113.71759476861439, 53.597412088300345], [-113.72082162231455, 53.59797517824676], [-113.72406596832325, 53.59853239221955], [-113.72727787538092, 53.599064244412894], [-113.73051221654906, 53.59960986973614], [-113.73371159552431, 53.600150634848895], [-113.73691471530968, 53.6006618804972], [-113.74009501734322, 53.601197300748], [-113.74329941659366, 53.60168369245726], [-113.74704058015035, 53.601729010806075], [-113.75079587927209, 53.60175638363738], [-113.75460943472085, 53.60179438226977], [-113.7584157434012, 53.60179507060098], [-113.76228132969118, 53.601773505404566], [-113.76615967512849, 53.60175635249933], [-113.77004572022928, 53.60172859915774], [-113.77394723071488, 53.60166593434154], [-113.77789460177272, 53.60158454190329], [-113.78181924153871, 53.6014901508052], [-113.78579510919086, 53.60137538408941], [-113.78983416813033, 53.60123017971901], [-113.79390612173059, 53.6010541409882], [-113.79796494030234, 53.60090650226903], [-113.8020453575217, 53.60074581585942], [-113.80615384600436, 53.60059510945293], [-113.81024968728889, 53.60042093624172], [-113.81438391282776, 53.600208408338275], [-113.81854626063806, 53.599994465310935], [-113.822744239842, 53.59977616482301], [-113.82697158050024, 53.59953157210046], [-113.83122548501987, 53.59927251258091], [-113.83550978817638, 53.598995196360065], [-113.83978511095484, 53.59870644407411], [-113.84411804700801, 53.59840756419811], [-113.84840810144127, 53.598106563043196], [-113.85273036633627, 53.59778167730727], [-113.85704891714956, 53.59744797910829], [-113.86140724388737, 53.597108219669984], [-113.86574648332937, 53.59675648968441], [-113.8701156319314, 53.59640195740053], [-113.87453224510139, 53.59603259895259], [-113.8789313118706, 53.59565646151222], [-113.88336186241555, 53.595239285282126], [-113.88783983016364, 53.59481381014018], [-113.89230476888234, 53.59442237676921], [-113.89681123064096, 53.594023262725436], [-113.90129438381395, 53.5936214647013], [-113.90581871154558, 53.593200796361565], [-113.91037265411875, 53.592768615382056], [-113.91495179460085, 53.59232490226361], [-113.91954103567507, 53.591840856309744], [-113.92410475221453, 53.591358315997844], [-113.92868464976362, 53.590878303711904], [-113.93328761205781, 53.59039663761271], [-113.93785939698147, 53.58993420351253], [-113.94244658304517, 53.58948067745261], [-113.94710025232564, 53.58900565546832], [-113.95174969147789, 53.58852451670474], [-113.95641080216802, 53.58806375537317], [-113.96107605221687, 53.58758319241101], [-113.96578658240308, 53.58709658703514], [-113.97048633169548, 53.586603027209414], [-113.97520110106889, 53.586132339454146], [-113.97989233157607, 53.58565751649512], [-113.98461229622097, 53.585187062917264], [-113.98934007485276, 53.5847166552103], [-113.99407254008814, 53.58425147082837], [-113.99877996569883, 53.58381715886698], [-114.00357113489748, 53.58335489269295], [-114.0084088957398, 53.582907074779726], [-114.01320579592456, 53.582427911968146], [-114.01804569896922, 53.58196311770927], [-114.0228929085136, 53.58153860849844], [-114.02769808383188, 53.5810970387683], [-114.03253880733706, 53.58062599522554], [-114.03738516981888, 53.580153917173305], [-114.04218751392192, 53.579689348128014], [-114.04701906237109, 53.57922105245729], [-114.05184964296146, 53.57875977028122], [-114.0567277484196, 53.578301570079404], [-114.06161090929616, 53.5778346663248], [-114.06652860559562, 53.57737924133883], [-114.0714702228592, 53.57690923118888], [-114.07639730779833, 53.576462431175045], [-114.08132261597038, 53.576036587912625], [-114.08624168335358, 53.57561115457652], [-114.09117417333385, 53.57518165115068], [-114.09609543657574, 53.574748544130586], [-114.10104951816247, 53.57433045763384], [-114.10600605399266, 53.573900565394084], [-114.11095453021476, 53.57347234879148], [-114.11589531187245, 53.5730535859623], [-114.12083400641156, 53.572651377026894], [-114.12577801590203, 53.572249263947846], [-114.13073600526816, 53.5718524612008], [-114.13570839357237, 53.571448733064415], [-114.14069398699333, 53.57106895581128], [-114.14564716034573, 53.570673038232705], [-114.15063089035752, 53.57029296525871], [-114.15563003918328, 53.56990830057675], [-114.16060902534227, 53.569521323593705], [-114.16558301982678, 53.56916273975412], [-114.17057134662386, 53.56879714938618], [-114.17554999082172, 53.568434003265715], [-114.18055486220382, 53.56807790586368], [-114.18558813672716, 53.567731759465346], [-114.19058222498347, 53.5673723291054], [-114.195610205041, 53.5670131310957], [-114.20061684487419, 53.56666397796847], [-114.20559710989846, 53.56633139083156], [-114.21056760177896, 53.566011692218844], [-114.21553677106324, 53.5656953818569], [-114.22050449096467, 53.56537905261037], [-114.22548943942216, 53.56504992827234], [-114.23050874269359, 53.56475965779985], [-114.23547153995794, 53.56446906810716], [-114.24045442518657, 53.564181304914314], [-114.24543228369696, 53.56389904725953], [-114.2504168151643, 53.56361627947505], [-114.25542229112143, 53.56334359902095], [-114.26040479297706, 53.56307273254], [-114.26539508785679, 53.56279800938037], [-114.2704040090718, 53.56252684653674], [-114.2753703676503, 53.56226629370437], [-114.28031832381463, 53.562022665350234], [-114.28523788775968, 53.56178080404604], [-114.29015590508305, 53.56155436201462], [-114.29505048162945, 53.56132850495076], [-114.29996209707848, 53.56108068480032]]}}, {"type": "Feature", "properties": {"z0_m": 40.0}, "geometry": {"type": "LineString", "coordinates": [[-113.36174128714575, 53.544785997676925], [-113.36520867961323, 53.54495758656544], [-113.36864929009168, 53.54511888232751], [-113.37208374320781, 53.54527151062354], [-113.37551593283725, 53.545446455491934], [-113.37891586303697, 53.545624203526096], [-113.38231248268663, 53.54579428862166], [-113.38573117881221, 53.54597819421097], [-113.38917022731495, 53.54616794836703], [-113.39255552088893, 53.54637433767759], [-113.3959210244563, 53.546599958052624], [-113.39926449376105, 53.5468246434987], [-113.40257691935102, 53.5470421630499], [-113.405906217315, 53.54727440954515], [-113.40922390893034, 53.54752135296862], [-113.4125154214668, 53.54775585972674], [-113.41576812719822, 53.54801813120847], [-113.41902455395864, 53.54828297143058], [-113.42228561173071, 53.54855343290093], [-113.4255458547127, 53.54884152373262], [-113.42884416105235, 53.54913783821982], [-113.43215555315818, 53.54944923222662], [-113.43540468284884, 53.54977852384925], [-113.43870002230402, 53.55009947822957], [-113.44195610117822, 53.55040479461232], [-113.44517823021931, 53.55073879009225], [-113.44843426238752, 53.55108908072906], [-113.45171022847431, 53.551442104608434], [-113.4549438431857, 53.55181423977946], [-113.45816805420424, 53.5521539027575], [-113.46139318123885, 53.55250923337666], [-113.46455653256625, 53.552879742572124], [-113.46771779776051, 53.55327574037549], [-113.47082645354375, 53.55366775732524], [-113.47399082192729, 53.55401722827199], [-113.47720965108333, 53.55439927489057], [-113.48042751258234, 53.55474743182405], [-113.4836302307346, 53.5551173687218], [-113.48681273218322, 53.555519198362525], [-113.49001587689219, 53.5559410871621], [-113.49320987800121, 53.55637573944992], [-113.49639232181018, 53.556816239830624], [-113.49957362631474, 53.55724694442789], [-113.50274230591849, 53.5576719051563], [-113.5058663621612, 53.55809530945564], [-113.50896963000596, 53.558539570250744], [-113.51210060624634, 53.55899684895114], [-113.51515649372362, 53.55945040411119], [-113.5183004413077, 53.55992110807357], [-113.5214507659236, 53.56039550558079], [-113.52458927230091, 53.56088534002726], [-113.52771837753076, 53.56139052857344], [-113.53083031524284, 53.561869975031584], [-113.5339616141609, 53.562335307143954], [-113.53710713710616, 53.56283977587771], [-113.54024334855514, 53.563352326776915], [-113.54336226117105, 53.56387187873425], [-113.54647424723552, 53.56439545192701], [-113.54962860030258, 53.56493308938808], [-113.55272554162109, 53.56548112960667], [-113.5558138458594, 53.56602432165545], [-113.55894219071895, 53.56655354817155], [-113.56205480520589, 53.56713231456008], [-113.56515193704057, 53.56769984159339], [-113.56820595597293, 53.568253746068464], [-113.57129925555914, 53.568800279774], [-113.57438922958222, 53.569308020188075], [-113.57745230066274, 53.56984499292447], [-113.58053849825495, 53.57039084045385], [-113.58366389273002, 53.57097527534437], [-113.58675555018937, 53.57156036902475], [-113.58982998482412, 53.57211752262733], [-113.59290427087981, 53.572687597169185], [-113.59599676538521, 53.57329281019338], [-113.59909048686077, 53.573874338196184], [-113.60219284859238, 53.574469054617786], [-113.60533259261128, 53.575072377038424], [-113.60841953886663, 53.57565380779072], [-113.6114824045716, 53.576222885833744], [-113.61454604887564, 53.576831655114994], [-113.61765188724212, 53.57744553296278], [-113.62073130100762, 53.578051140866464], [-113.62386854403303, 53.57865891044292], [-113.62699538908045, 53.57927825317378], [-113.63011392097974, 53.57991376725632], [-113.6332712230467, 53.58052951632244], [-113.63643920541163, 53.58113884857071], [-113.6395794062799, 53.581756158180156], [-113.6426852657976, 53.582371042239856], [-113.64581078874714, 53.58301046395474], [-113.64890791749627, 53.5836171093986], [-113.65203334209932, 53.58423555696227], [-113.65515119583551, 53.584862611279746], [-113.65830396259607, 53.585478755136364], [-113.66142249022492, 53.58610836668904], [-113.6645627840676, 53.58674447710789], [-113.66770677185848, 53.58733624245222], [-113.67085679517695, 53.58792997991861], [-113.6739854889866, 53.58853471331281], [-113.67707255668807, 53.58911808933184], [-113.68017340811498, 53.58968829784467], [-113.68326677457075, 53.590296905460555], [-113.6863789970272, 53.590894237395595], [-113.6895142195769, 53.5915172686703], [-113.69263019613592, 53.592132229789726], [-113.69575360575779, 53.592750242038235], [-113.69892507190069, 53.59333918143522], [-113.70207580294023, 53.59392898015965], [-113.70525693618727, 53.59451522945763], [-113.70844667468022, 53.59508635238626], [-113.7116161343978, 53.59564179994303], [-113.7147735322763, 53.596195602957586], [-113.71790512715569, 53.59673470643379], [-113.72105696622016, 53.59727884607446], [-113.72419076389703, 53.59782689863699], [-113.72733842348731, 53.59838792971013], [-113.73050244533277, 53.59893863724275], [-113.73370044110929, 53.59946438376097], [-113.73691091353005, 53.59998454340437], [-113.74010022892665, 53.6005292514559], [-113.74334169082994, 53.60107482779439], [-113.74707212423847, 53.601158995036315], [-113.75082605918115, 53.601191353625055], [-113.75464469768805, 53.60120254383426], [-113.75846087518286, 53.601218052542315], [-113.76230265555549, 53.60120386576143], [-113.76615449762889, 53.60117188111796], [-113.77004122710831, 53.601141101585924], [-113.77399207733099, 53.60106844470593], [-113.7779988604376, 53.60098712666841], [-113.78200612412387, 53.60088608479103], [-113.78602264924389, 53.60077878457752], [-113.79005760811042, 53.60064479779197], [-113.79419539202392, 53.60050548353992], [-113.79832689959674, 53.60035368550047], [-113.80246282048354, 53.600200652755184], [-113.80656848257972, 53.60000334322065], [-113.81070841398767, 53.59978819851155], [-113.8148673881826, 53.599578113484945], [-113.81904907983132, 53.599361721298784], [-113.82323007945854, 53.59914489199424], [-113.82741821947442, 53.59889704828842], [-113.83169338884792, 53.59862188401831], [-113.83599091181908, 53.59837625760046], [-113.84028475738099, 53.598078557143445], [-113.84456179987292, 53.597766918895495], [-113.84889647153206, 53.597412344566834], [-113.85322938669049, 53.59709331651714], [-113.85758612715736, 53.596756468117974], [-113.8619783455935, 53.59641131114042], [-113.86642822855775, 53.59604652417554], [-113.87082717597751, 53.59568351955041], [-113.87527381083281, 53.59531505129174], [-113.87971875863857, 53.59493938520193], [-113.88416700107531, 53.59453319858244], [-113.88865204709505, 53.59412201540095], [-113.89312919610488, 53.59369433992911], [-113.89759879732999, 53.593251575419266], [-113.90208636789886, 53.59281345164309], [-113.90657177514423, 53.592369722324065], [-113.91109749936014, 53.59193787480137], [-113.91568829026045, 53.59149529376964], [-113.92026100278493, 53.591041181181915], [-113.9248831270136, 53.59057172136909], [-113.92945659760521, 53.59012115092673], [-113.93403106775008, 53.58966124632541], [-113.93864231834253, 53.58919151118109], [-113.9432847803319, 53.58873928399292], [-113.9479315397352, 53.58828334134662], [-113.95262551522494, 53.587816662945364], [-113.95733536816992, 53.58735275128741], [-113.96202983446172, 53.58689214989694], [-113.9667423259104, 53.58643475232168], [-113.97146528964382, 53.58595470270941], [-113.97613204250432, 53.5854634673632], [-113.98078264189334, 53.58500163329343], [-113.98552131627568, 53.5845371697808], [-113.99025232721819, 53.584034317153794], [-113.99502394723032, 53.58353599812015], [-113.9997843509085, 53.5830737608781], [-114.00455531694567, 53.58260968655972], [-114.00930787268692, 53.582110629584704], [-114.01405500539254, 53.58167197366673], [-114.0188636552196, 53.581198895686235], [-114.02368244819411, 53.58072935155318], [-114.02851741022323, 53.58025628428023], [-114.0333936608263, 53.57979089272217], [-114.03826912478061, 53.579336744019656], [-114.04315063455746, 53.57887969071801], [-114.04804867923158, 53.57840279448269], [-114.05294868116003, 53.577924129861955], [-114.05781073355674, 53.57748018921302], [-114.06274516231456, 53.577026156836475], [-114.06765456612261, 53.57656882601009], [-114.07253826267635, 53.57612212156206], [-114.07747428659536, 53.57568010130466], [-114.0824143858966, 53.575218400463925], [-114.08735605212969, 53.57475861517241], [-114.09227820144471, 53.574314228802926], [-114.09722163162655, 53.57385924413049], [-114.10215141719479, 53.573420963613216], [-114.10704887088225, 53.57300093586783], [-114.11198585956546, 53.572576969738414], [-114.11690813512602, 53.57216449847589], [-114.12183796035342, 53.5717504004467], [-114.12678825530122, 53.571348842917544], [-114.13173747320471, 53.57094306316919], [-114.13670095932025, 53.57053665989458], [-114.14169566433033, 53.57013437952256], [-114.14667817358206, 53.569746586147886], [-114.15168672845272, 53.569358798843425], [-114.15669492236954, 53.56898717516112], [-114.16169669868508, 53.568630626836566], [-114.16669505001417, 53.56827627163201], [-114.1717114223908, 53.56791306636279], [-114.17670203001195, 53.56755500647185], [-114.18167389683752, 53.56720415827253], [-114.18664631424402, 53.56681807618954], [-114.19162985115992, 53.566450869828], [-114.19660765523265, 53.56611857054981], [-114.20162787175117, 53.565796308608014], [-114.20666955279962, 53.56545544768739], [-114.21167028181284, 53.56512692669148], [-114.21664872300991, 53.56480646974392], [-114.22163630102247, 53.564486165766525], [-114.22660959354172, 53.564171183356244], [-114.23158749736172, 53.56385009654502], [-114.23657281338089, 53.56352734208872], [-114.24157177953903, 53.56321831489067], [-114.24656684999835, 53.56290614424134], [-114.25157228344625, 53.56258835896616], [-114.25653793369585, 53.562271580668614], [-114.26147839485782, 53.56199186174969], [-114.26643856650922, 53.561731222156205], [-114.2714076174594, 53.56148430698454], [-114.27634479948368, 53.56121915541094], [-114.28129282828682, 53.56097463964446], [-114.28620367532027, 53.56074619946619], [-114.29108996513759, 53.56050386415219], [-114.29597023962941, 53.56027057219644], [-114.30088539246387, 53.56003718244204]]}}, {"type": "Feature", "properties": {"z0_m": 80.0}, "geometry": {"type": "LineString", "coordinates": [[-113.36176023769663, 53.544787017529735], [-113.36531642549824, 53.544954107160336], [-113.36882715846878, 53.54514073228228], [-113.37232878721662, 53.545312017477], [-113.37580051942088, 53.545493327358], [-113.37920476889087, 53.54568662595678], [-113.38264317327, 53.54589009454128], [-113.38597892247049, 53.5460424413242], [-113.38930804978641, 53.54620989871644], [-113.39264681667022, 53.54639656408135], [-113.39601414832553, 53.54663463081694], [-113.39937299769021, 53.54685299164461], [-113.40268192996312, 53.54705684853184], [-113.40595905842412, 53.5472674118915], [-113.40918391899635, 53.54747822353227], [-113.41247211990805, 53.547724017593346], [-113.41577502250999, 53.547948347800805], [-113.41903633132557, 53.54820832613473], [-113.4223543568737, 53.548461011143374], [-113.4256608309102, 53.5487230715991], [-113.42891516097804, 53.54902519524702], [-113.43219553508229, 53.5493359014135], [-113.43548146131148, 53.549632014899956], [-113.43868119396754, 53.54995540869587], [-113.44192720235617, 53.55028785602563], [-113.44517133765281, 53.550623833171855], [-113.44838228049251, 53.550944496719296], [-113.45164050569782, 53.55129345784383], [-113.45485185054727, 53.55164989137379], [-113.45802573941289, 53.55200173253371], [-113.46123237621117, 53.552383747276366], [-113.46448063674771, 53.552780513254994], [-113.46768431822952, 53.5531656966091], [-113.47088624513214, 53.55352102052554], [-113.47407347231963, 53.553911800538636], [-113.47727113106276, 53.554305337534466], [-113.4804343401826, 53.55468454583371], [-113.48356554208088, 53.55509993007624], [-113.4866883637961, 53.55548755427705], [-113.48978177069854, 53.555862329814055], [-113.49287919769023, 53.55623187675793], [-113.49597238773914, 53.55663620339037], [-113.49904363797653, 53.557073146430135], [-113.50219499790367, 53.55748352087708], [-113.50531754529646, 53.55794463804317], [-113.50849128061706, 53.55840717865742], [-113.51160867139617, 53.55887407225103], [-113.51471074964053, 53.559329395732156], [-113.51775844644382, 53.559801080286704], [-113.52086427948403, 53.56028627949134], [-113.52399016192042, 53.5607807378974], [-113.52715390807415, 53.56125140313462], [-113.53032205217198, 53.56169329736898], [-113.53345568879963, 53.56216773308257], [-113.53660644260187, 53.562650712395225], [-113.53972024504624, 53.563164477420806], [-113.54281581274816, 53.563688662361336], [-113.54589608378585, 53.564232264967956], [-113.54897784992427, 53.56478123752694], [-113.55206484628042, 53.565316163954414], [-113.55518740683799, 53.56583085328537], [-113.55831898749719, 53.566377570330694], [-113.56146576355592, 53.56692891983657], [-113.56457294326259, 53.56747559956289], [-113.56764590733933, 53.56803432782308], [-113.5707300279275, 53.568578978109194], [-113.57387717814723, 53.56912897122064], [-113.57700618086649, 53.56970430548849], [-113.58012208277772, 53.57028218887968], [-113.58315255562545, 53.57086576560603], [-113.58622101418717, 53.57146052024484], [-113.58932298986993, 53.5720513492], [-113.59236064353223, 53.5726636225441], [-113.5954406385474, 53.57324155830041], [-113.59851077881382, 53.57383210119669], [-113.60160085254228, 53.57441047124677], [-113.6046620390589, 53.57499784214227], [-113.60774001031258, 53.57558898645969], [-113.61082026825439, 53.576187037648424], [-113.61395599758522, 53.57678826872682], [-113.61706767428225, 53.577414840068386], [-113.6201529820674, 53.57803625984878], [-113.62322343224815, 53.578669585762924], [-113.62629917649994, 53.57929662116594], [-113.62935634347406, 53.57991084188863], [-113.63242141667543, 53.580508539181395], [-113.63553611655945, 53.58111697748369], [-113.63867946340484, 53.58175484426631], [-113.64180725627654, 53.58240504467219], [-113.6449311020331, 53.58303706086729], [-113.64811820946508, 53.583676714380196], [-113.65131128900457, 53.58430998453614], [-113.65442112907299, 53.58492751707141], [-113.65752195048437, 53.58555613328653], [-113.66065099502009, 53.5861744025942], [-113.66375155607548, 53.58681601400776], [-113.66685917293731, 53.58744097929624], [-113.66998871536961, 53.58804749231735], [-113.67307444683084, 53.588663535656174], [-113.676186404774, 53.58927602155869], [-113.67935645296824, 53.58987896733472], [-113.68255000206292, 53.590479752348266], [-113.68575312752051, 53.59110545393664], [-113.68890311874006, 53.591736226731406], [-113.6920780005851, 53.592359235908496], [-113.69526088409135, 53.59298075006249], [-113.69844437054097, 53.59359327295907], [-113.7016017247343, 53.594212378896145], [-113.7047082746992, 53.59481246029224], [-113.70783716433587, 53.59540431862084], [-113.71097965058384, 53.59597772960289], [-113.71412561268788, 53.59656014674454], [-113.71732610371109, 53.59715204288141], [-113.72050150996627, 53.59771319919632], [-113.72365934632442, 53.598284946160476], [-113.72677734643445, 53.59881573432559], [-113.72994489287106, 53.59934797897227], [-113.73313734376183, 53.59986263303535], [-113.73630341095738, 53.60037959046785], [-113.73951783419277, 53.60089780811766], [-113.74272105760106, 53.60141970633793], [-113.74647106400087, 53.601510066828496], [-113.75020698630094, 53.60155750819279], [-113.75405536161236, 53.6016055733187], [-113.75789778263768, 53.601609903591466], [-113.76178165572996, 53.60161485717826], [-113.76564536590867, 53.60159096502123], [-113.769584894358, 53.60157943273281], [-113.77356714219543, 53.601541844799755], [-113.77748484307544, 53.601454708238414], [-113.78146394833134, 53.601359739378246], [-113.78548123049836, 53.60125628179196], [-113.78957949709164, 53.601136602718455], [-113.7936627690172, 53.60101522602444], [-113.79771381119538, 53.60084927434659], [-113.80183570135097, 53.60068216832413], [-113.80598962578837, 53.60048056687165], [-113.81009701384052, 53.60029192416792], [-113.8142531508544, 53.60007465668119], [-113.81842697062127, 53.59984293105452], [-113.82260926919271, 53.599621880259214], [-113.82681580224953, 53.599385097791284], [-113.83099126958116, 53.599085686812074], [-113.8352133056655, 53.59879323879641], [-113.83950337674449, 53.59848769587377], [-113.84379810141122, 53.59818703869781], [-113.8480922296992, 53.59789168698353], [-113.85241274951407, 53.597603080867074], [-113.85670508317969, 53.59727899380923], [-113.86103169719854, 53.59692270934199], [-113.86538201146443, 53.59656845494936], [-113.86973906154654, 53.59619683184023], [-113.874100000045, 53.595816392377785], [-113.87845429910546, 53.59541814398154], [-113.88282588954462, 53.595027004726596], [-113.88726632337475, 53.59460551005442], [-113.89172151370096, 53.594161362786984], [-113.8961472093103, 53.5937046244185], [-113.90062168592543, 53.593253613637025], [-113.90514630449228, 53.59280187798782], [-113.90967630273165, 53.592344090954555], [-113.91422779431687, 53.59189800639474], [-113.91875259245349, 53.5914704901973], [-113.92331387650515, 53.59104836901398], [-113.92790159883273, 53.59060127953165], [-113.93247443665722, 53.59014746483324], [-113.9370642240462, 53.58968533484103], [-113.94170583431634, 53.58923365595024], [-113.94633267447963, 53.58877386728406], [-113.95096082591326, 53.58833407099023], [-113.9556099365047, 53.587866428546135], [-113.96026138910305, 53.587378342530144], [-113.96493123300165, 53.58689090068192], [-113.9696693798599, 53.5864080380835], [-113.97438903935667, 53.58593840163232], [-113.97917308849104, 53.585464914411716], [-113.98396635427567, 53.58499368810373], [-113.9887620481595, 53.58452459638015], [-113.99355206963075, 53.58405847132481], [-113.99836080666282, 53.583562586780545], [-114.00317755495419, 53.58305016574143], [-114.00799963127929, 53.58256767220596], [-114.01279422518908, 53.58208809730078], [-114.01757672294761, 53.58159710572789], [-114.02240246250945, 53.58113875525227], [-114.0271913174177, 53.58069776233972], [-114.03199316307555, 53.58022331256517], [-114.03677898073133, 53.57977458255421], [-114.04159488091415, 53.57931361229656], [-114.04645101162959, 53.578840744799614], [-114.05138606960192, 53.57837618156013], [-114.05632273333826, 53.57791205447473], [-114.06126844977778, 53.57746070967672], [-114.06617541205556, 53.5770130510669], [-114.07107409140532, 53.57656968556046], [-114.07597384935963, 53.57613163841567], [-114.08088943892231, 53.5756999523526], [-114.08583594840665, 53.57527611737189], [-114.09079308906007, 53.574861427755536], [-114.09577132865651, 53.574439870466676], [-114.10072619824612, 53.574009686044], [-114.10567003916306, 53.57358729137792], [-114.11061225240347, 53.57317162269669], [-114.11552579019873, 53.57274114216538], [-114.12044836003261, 53.57232169139175], [-114.12541527956806, 53.57192832223968], [-114.13041641288166, 53.571521949049526], [-114.13541413413884, 53.571129172781205], [-114.14042776616576, 53.570737849205635], [-114.14540604974474, 53.57035717904381], [-114.15038729633865, 53.569962832067155], [-114.15538413019671, 53.56956762109875], [-114.16036039500958, 53.56916806299063], [-114.16532959289276, 53.56880533362102], [-114.1703038406301, 53.5684359365901], [-114.1752883806509, 53.56806042408072], [-114.18028556528719, 53.56769343337661], [-114.18529589479333, 53.56734361319036], [-114.19027432459387, 53.56696917098093], [-114.19524377423275, 53.56663200254088], [-114.20023320912738, 53.566310063714226], [-114.20523696614332, 53.56599008664108], [-114.2102277139163, 53.56567812479469], [-114.21520118879901, 53.56538517497948], [-114.22016787792292, 53.565093085027065], [-114.22515806155357, 53.56480021610997], [-114.23017947786548, 53.56451996368224], [-114.23518430542696, 53.564225347478065], [-114.2401882836669, 53.56392994036007], [-114.24515353813023, 53.563621751176264], [-114.25011959622813, 53.56335162099849], [-114.25512484103325, 53.56308891487631], [-114.2601203859423, 53.56282571121958], [-114.26509401161151, 53.562577215780045], [-114.2700576724045, 53.562321983074], [-114.27498452045353, 53.56205281855088], [-114.27988824521373, 53.56179677833628], [-114.28481886979367, 53.56155318506252], [-114.28974627214612, 53.56130600523442], [-114.29466203532647, 53.56103005990833], [-114.29956214901453, 53.560790426058595]]}}]}