{"type": "FeatureCollection", "features": [{"type": "Feature", "properties": {"count": 450}, "geometry": {"type": "Polygon", "coordinates": [[[-113.94, 53.52], [-113.93, 53.52], [-113.93, 53.53], [-113.94, 53.53], [-113.94, 53.52]]]}}, {"type": "Feature", "properties": {"count": 365}, "geometry": {"type": "Polygon", "coordinates": [[[-113.94, 53.54], [-113.93, 53.54], [-113.93, 53.550000000000004], [-113.94, 53.550000000000004], [-113.94, 53.54]]]}}, {"type": "Feature", "properties": {"count": 85}, "geometry": {"type": "Polygon", "coordinates": [[[-113.95, 53.54], [-113.94, 53.54], [-113.94, 53.550000000000004], [-113.95, 53.550000000000004], [-113.95, 53.54]]]}}, {"type": "Feature", "properties": {"count": 441}, "geometry": {"type": "Polygon", "coordinates": [[[-113.95, 53.56], [-113.94, 53.56], [-113.94, 53.57], [-113.95, 53.57], [-113.95, 53.56]]]}}, {"type": "Feature", "properties": {"count": 4}, "geometry": {"type": "Polygon", "coordinates": [[[-113.95, 53.550000000000004], [-113.94, 53.550000000000004], [-113.94, 53.56], [-113.95, 53.56], [-113.95, 53.550000000000004]]]}}, {"type": "Feature", "properties": {"count": 4}, "geometry": {"type": "Polygon", "coordinates": [[[-113.94, 53.56], [-113.93, 53.56], [-113.93, 53.57], [-113.94, 53.57], [-113.94, 53.56]]]}}, {"type": "Feature", "properties": {"count": 235}, "geometry": {"type": "Polygon", "coordinates": [[[-113.95, 53.58], [-113.94, 53.58], [-113.94, 53.59], [-113.95, 53.59], [-113.95, 53.58]]]}}, {"type": "Feature", "properties": {"count": 50}, "geometry": {"type": "Polygon", "coordinates": [[[-113.95, 53.57], [-113.94, 53.57], [-113.94, 53.58], [-113.95, 53.58], [-113.95, 53.57]]]}}, {"type": "Feature", "properties": {"count": 145}, "geometry": {"type": "Polygon", "coordinates": [[[-113.96000000000001, 53.58], [-113.95, 53.58], [-113.95, 53.59], [-113.96000000000001, 53.59], [-113.96000000000001, 53.58]]]}}, {"type": "Feature", "properties": {"count": 20}, "geometry": {"type": "Polygon", "coordinates": [[[-113.96000000000001, 53.57], [-113.95, 53.57], [-113.95, 53.58], [-113.96000000000001, 53.58], [-113.96000000000001, 53.57]]]}}, {"type": "Feature", "properties": {"count": 294}, "geometry": {"type": "Polygon", "coordinates": [[[-113.96000000000001, 53.6], [-113.95, 53.6], [-113.95, 53.61], [-113.96000000000001, 53.61], [-113.96000000000001, 53.6]]]}}, {"type": "Feature", "properties": {"count": 18}, "geometry": {"type": "Polygon", "coordinates": [[[-113.95, 53.6], [-113.94, 53.6], [-113.94, 53.61], [-113.95, 53.61], [-113.95, 53.6]]]}}, {"type": "Feature", "properties": {"count": 124}, "geometry": {"type": "Polygon", "coordinates": [[[-113.96000000000001, 53.59], [-113.95, 53.59], [-113.95, 53.6], [-113.96000000000001, 53.6], [-113.96000000000001, 53.59]]]}}, {"type": "Feature", "properties": {"count": 4}, "geometry": {"type": "Polygon", "coordinates": [[[-113.97, 53.59], [-113.96000000000001, 53.59], [-113.96000000000001, 53.6], [-113.97, 53.6], [-113.97, 53.59]]]}}, {"type": "Feature", "properties": {"count": 7}, "geometry": {"type": "Polygon", "coordinates": [[[-113.97, 53.6], [-113.96000000000001, 53.6], [-113.96000000000001, 53.61], [-113.97, 53.61], [-113.97, 53.6]]]}}, {"type": "Feature", "properties": {"count": 141}, "geometry": {"type": "Polygon", "coordinates": [[[-113.96000000000001, 53.620000000000005], [-113.95, 53.620000000000005], [-113.95, 53.63], [-113.96000000000001, 53.63], [-113.96000000000001, 53.620000000000005]]]}}, {"type": "Feature", "properties": {"count": 102}, "geometry": {"type": "Polygon", "coordinates": [[[-113.96000000000001, 53.61], [-113.95, 53.61], [-113.95, 53.620000000000005], [-113.96000000000001, 53.620000000000005], [-113.96000000000001, 53.61]]]}}, {"type": "Feature", "properties": {"count": 122}, "geometry": {"type": "Polygon", "coordinates": [[[-113.97, 53.620000000000005], [-113.96000000000001, 53.620000000000005], [-113.96000000000001, 53.63], [-113.97, 53.63], [-113.97, 53.620000000000005]]]}}, {"type": "Feature", "properties": {"count": 85}, "geometry": {"type": "Polygon", "coordinates": [[[-113.97, 53.61], [-113.96000000000001, 53.61], [-113.96000000000001, 53.620000000000005], [-113.97, 53.620000000000005], [-113.97, 53.61]]]}}, {"type": "Feature", "properties": {"count": 19}, "geometry": {"type": "Polygon", "coordinates": [[[-113.96000000000001, 53.64], [-113.95, 53.64], [-113.95, 53.65], [-113.96000000000001, 53.65], [-113.96000000000001, 53.64]]]}}, {"type": "Feature", "properties": {"count": 189}, "geometry": {"type": "Polygon", "coordinates": [[[-113.97, 53.64], [-113.96000000000001, 53.64], [-113.96000000000001, 53.65], [-113.97, 53.65], [-113.97, 53.64]]]}}, {"type": "Feature", "properties": {"count": 197}, "geometry": {"type": "Polygon", "coordinates": [[[-113.97, 53.63], [-113.96000000000001, 53.63], [-113.96000000000001, 53.64], [-113.97, 53.64], [-113.97, 53.63]]]}}, {"type": "Feature", "properties": {"count": 11}, "geometry": {"type": "Polygon", "coordinates": [[[-113.98, 53.64], [-113.97, 53.64], [-113.97, 53.65], [-113.98, 53.65], [-113.98, 53.64]]]}}, {"type": "Feature", "properties": {"count": 21}, "geometry": {"type": "Polygon", "coordinates": [[[-113.98, 53.63], [-113.97, 53.63], [-113.97, 53.64], [-113.98, 53.64], [-113.98, 53.63]]]}}, {"type": "Feature", "properties": {"count": 13}, "geometry": {"type": "Polygon", "coordinates": [[[-113.96000000000001, 53.63], [-113.95, 53.63], [-113.95, 53.64], [-113.96000000000001, 53.64], [-113.96000000000001, 53.63]]]}}, {"type": "Feature", "properties": {"count": 82}, "geometry": {"type": "Polygon", "coordinates": [[[-113.97, 53.660000000000004], [-113.96000000000001, 53.660000000000004], [-113.96000000000001, 53.67], [-113.97, 53.67], [-113.97, 53.660000000000004]]]}}, {"type": "Feature", "properties": {"count": 124}, "geometry": {"type": "Polygon", "coordinates": [[[-113.97, 53.65], [-113.96000000000001, 53.65], [-113.96000000000001, 53.660000000000004], [-113.97, 53.660000000000004], [-113.97, 53.65]]]}}, {"type": "Feature", "properties": {"count": 162}, "geometry": {"type": "Polygon", "coordinates": [[[-113.98, 53.65], [-113.97, 53.65], [-113.97, 53.660000000000004], [-113.98, 53.660000000000004], [-113.98, 53.65]]]}}, {"type": "Feature", "properties": {"count": 80}, "geometry": {"type": "Polygon", "coordinates": [[[-113.98, 53.660000000000004], [-113.97, 53.660000000000004], [-113.97, 53.67], [-113.98, 53.67], [-113.98, 53.660000000000004]]]}}, {"type": "Feature", "properties": {"count": 17}, "geometry": {"type": "Polygon", "coordinates": [[[-113.97, 53.67], [-113.96000000000001, 53.67], [-113.96000000000001, 53.68], [-113.97, 53.68], [-113.97, 53.67]]]}}, {"type": "Feature", "properties": {"count": 102}, "geometry": {"type": "Polygon", "coordinates": [[[-113.98, 53.68], [-113.97, 53.68], [-113.97, 53.69], [-113.98, 53.69], [-113.98, 53.68]]]}}, {"type": "Feature", "properties": {"count": 10}, "geometry": {"type": "Polygon", "coordinates": [[[-113.97, 53.68], [-113.96000000000001, 53.68], [-113.96000000000001, 53.69], [-113.97, 53.69], [-113.97, 53.68]]]}}, {"type": "Feature", "properties": {"count": 264}, "geometry": {"type": "Polygon", "coordinates": [[[-113.98, 53.67], [-113.97, 53.67], [-113.97, 53.68], [-113.98, 53.68], [-113.98, 53.67]]]}}, {"type": "Feature", "properties": {"count": 45}, "geometry": {"type": "Polygon", "coordinates": [[[-113.99000000000001, 53.67], [-113.98, 53.67], [-113.98, 53.68], [-113.99000000000001, 53.68], [-113.99000000000001, 53.67]]]}}, {"type": "Feature", "properties": {"count": 12}, "geometry": {"type": "Polygon", "coordinates": [[[-113.99000000000001, 53.68], [-113.98, 53.68], [-113.98, 53.69], [-113.99000000000001, 53.69], [-113.99000000000001, 53.68]]]}}, {"type": "Feature", "properties": {"count": 139}, "geometry": {"type": "Polygon", "coordinates": [[[-113.98, 53.69], [-113.97, 53.69], [-113.97, 53.7], [-113.98, 53.7], [-113.98, 53.69]]]}}, {"type": "Feature", "properties": {"count": 56}, "geometry": {"type": "Polygon", "coordinates": [[[-113.98, 53.7], [-113.97, 53.7], [-113.97, 53.71], [-113.98, 53.71], [-113.98, 53.7]]]}}, {"type": "Feature", "properties": {"count": 198}, "geometry": {"type": "Polygon", "coordinates": [[[-113.99000000000001, 53.69], [-113.98, 53.69], [-113.98, 53.7], [-113.99000000000001, 53.7], [-113.99000000000001, 53.69]]]}}, {"type": "Feature", "properties": {"count": 45}, "geometry": {"type": "Polygon", "coordinates": [[[-113.99000000000001, 53.7], [-113.98, 53.7], [-113.98, 53.71], [-113.99000000000001, 53.71], [-113.99000000000001, 53.7]]]}}, {"type": "Feature", "properties": {"count": 10}, "geometry": {"type": "Polygon", "coordinates": [[[-114.0, 53.69], [-113.99000000000001, 53.69], [-113.99000000000001, 53.7], [-114.0, 53.7], [-114.0, 53.69]]]}}, {"type": "Feature", "properties": {"count": 29}, "geometry": {"type": "Polygon", "coordinates": [[[-113.98, 53.71], [-113.97, 53.71], [-113.97, 53.72], [-113.98, 53.72], [-113.98, 53.71]]]}}, {"type": "Feature", "properties": {"count": 8}, "geometry": {"type": "Polygon", "coordinates": [[[-113.98, 53.72], [-113.97, 53.72], [-113.97, 53.730000000000004], [-113.98, 53.730000000000004], [-113.98, 53.72]]]}}, {"type": "Feature", "properties": {"count": 241}, "geometry": {"type": "Polygon", "coordinates": [[[-113.99000000000001, 53.71], [-113.98, 53.71], [-113.98, 53.72], [-113.99000000000001, 53.72], [-113.99000000000001, 53.71]]]}}, {"type": "Feature", "properties": {"count": 89}, "geometry": {"type": "Polygon", "coordinates": [[[-113.99000000000001, 53.72], [-113.98, 53.72], [-113.98, 53.730000000000004], [-113.99000000000001, 53.730000000000004], [-113.99000000000001, 53.72]]]}}, {"type": "Feature", "properties": {"count": 69}, "geometry": {"type": "Polygon", "coordinates": [[[-114.0, 53.71], [-113.99000000000001, 53.71], [-113.99000000000001, 53.72], [-114.0, 53.72], [-114.0, 53.71]]]}}, {"type": "Feature", "properties": {"count": 15}, "geometry": {"type": "Polygon", "coordinates": [[[-114.0, 53.72], [-113.99000000000001, 53.72], [-113.99000000000001, 53.730000000000004], [-114.0, 53.730000000000004], [-114.0, 53.72]]]}}, {"type": "Feature", "properties": {"count": 5}, "geometry": {"type": "Polygon", "coordinates": [[[-113.98, 53.730000000000004], [-113.97, 53.730000000000004], [-113.97, 53.74], [-113.98, 53.74], [-113.98, 53.730000000000004]]]}}, {"type": "Feature", "properties": {"count": 118}, "geometry": {"type": "Polygon", "coordinates": [[[-113.99000000000001, 53.730000000000004], [-113.98, 53.730000000000004], [-113.98, 53.74], [-113.99000000000001, 53.74], [-113.99000000000001, 53.730000000000004]]]}}, {"type": "Feature", "properties": {"count": 52}, "geometry": {"type": "Polygon", "coordinates": [[[-113.99000000000001, 53.74], [-113.98, 53.74], [-113.98, 53.75], [-113.99000000000001, 53.75], [-113.99000000000001, 53.74]]]}}, {"type": "Feature", "properties": {"count": 67}, "geometry": {"type": "Polygon", "coordinates": [[[-114.0, 53.74], [-113.99000000000001, 53.74], [-113.99000000000001, 53.75], [-114.0, 53.75], [-114.0, 53.74]]]}}, {"type": "Feature", "properties": {"count": 188}, "geometry": {"type": "Polygon", "coordinates": [[[-114.0, 53.730000000000004], [-113.99000000000001, 53.730000000000004], [-113.99000000000001, 53.74], [-114.0, 53.74], [-114.0, 53.730000000000004]]]}}, {"type": "Feature", "properties": {"count": 2}, "geometry": {"type": "Polygon", "coordinates": [[[-113.98, 53.74], [-113.97, 53.74], [-113.97, 53.75], [-113.98, 53.75], [-113.98, 53.74]]]}}, {"type": "Feature", "properties": {"count": 14}, "geometry": {"type": "Polygon", "coordinates": [[[-114.01, 53.730000000000004], [-114.0, 53.730000000000004], [-114.0, 53.74], [-114.01, 53.74], [-114.01, 53.730000000000004]]]}}, {"type": "Feature", "properties": {"count": 4}, "geometry": {"type": "Polygon", "coordinates": [[[-114.01, 53.74], [-114.0, 53.74], [-114.0, 53.75], [-114.01, 53.75], [-114.01, 53.74]]]}}, {"type": "Feature", "properties": {"count": 31}, "geometry": {"type": "Polygon", "coordinates": [[[-113.99000000000001, 53.75], [-113.98, 53.75], [-113.98, 53.76], [-113.99000000000001, 53.76], [-113.99000000000001, 53.75]]]}}, {"type": "Feature", "properties": {"count": 16}, "geometry": {"type": "Polygon", "coordinates": [[[-113.99000000000001, 53.76], [-113.98, 53.76], [-113.98, 53.77], [-113.99000000000001, 53.77], [-113.99000000000001, 53.76]]]}}, {"type": "Feature", "properties": {"count": 94}, "geometry": {"type": "Polygon", "coordinates": [[[-114.0, 53.76], [-113.99000000000001, 53.76], [-113.99000000000001, 53.77], [-114.0, 53.77], [-114.0, 53.76]]]}}, {"type": "Feature", "properties": {"count": 206}, "geometry": {"type": "Polygon", "coordinates": [[[-114.0, 53.75], [-113.99000000000001, 53.75], [-113.99000000000001, 53.76], [-114.0, 53.76], [-114.0, 53.75]]]}}, {"type": "Feature", "properties": {"count": 74}, "geometry": {"type": "Polygon", "coordinates": [[[-114.01, 53.75], [-114.0, 53.75], [-114.0, 53.76], [-114.01, 53.76], [-114.01, 53.75]]]}}, {"type": "Feature", "properties": {"count": 29}, "geometry": {"type": "Polygon", "coordinates": [[[-114.01, 53.76], [-114.0, 53.76], [-114.0, 53.77], [-114.01, 53.77], [-114.01, 53.76]]]}}, {"type": "Feature", "properties": {"count": 4}, "geometry": {"type": "Polygon", "coordinates": [[[-113.99000000000001, 53.78], [-113.98, 53.78], [-113.98, 53.79], [-113.99000000000001, 53.79], [-113.99000000000001, 53.78]]]}}, {"type": "Feature", "properties": {"count": 73}, "geometry": {"type": "Polygon", "coordinates": [[[-114.0, 53.78], [-113.99000000000001, 53.78], [-113.99000000000001, 53.79], [-114.0, 53.79], [-114.0, 53.78]]]}}, {"type": "Feature", "properties": {"count": 78}, "geometry": {"type": "Polygon", "coordinates": [[[-114.01, 53.78], [-114.0, 53.78], [-114.0, 53.79], [-114.01, 53.79], [-114.01, 53.78]]]}}, {"type": "Feature", "properties": {"count": 166}, "geometry": {"type": "Polygon", "coordinates": [[[-114.01, 53.77], [-114.0, 53.77], [-114.0, 53.78], [-114.01, 53.78], [-114.01, 53.77]]]}}, {"type": "Feature", "properties": {"count": 105}, "geometry": {"type": "Polygon", "coordinates": [[[-114.0, 53.77], [-113.99000000000001, 53.77], [-113.99000000000001, 53.78], [-114.0, 53.78], [-114.0, 53.77]]]}}, {"type": "Feature", "properties": {"count": 5}, "geometry": {"type": "Polygon", "coordinates": [[[-113.99000000000001, 53.77], [-113.98, 53.77], [-113.98, 53.78], [-113.99000000000001, 53.78], [-113.99000000000001, 53.77]]]}}, {"type": "Feature", "properties": {"count": 13}, "geometry": {"type": "Polygon", "coordinates": [[[-114.02, 53.77], [-114.01, 53.77], [-114.01, 53.78], [-114.02, 53.78], [-114.02, 53.77]]]}}, {"type": "Feature", "properties": {"count": 6}, "geometry": {"type": "Polygon", "coordinates": [[[-114.02, 53.78], [-114.01, 53.78], [-114.01, 53.79], [-114.02, 53.79], [-114.02, 53.78]]]}}, {"type": "Feature", "properties": {"count": 28}, "geometry": {"type": "Polygon", "coordinates": [[[-114.0, 53.800000000000004], [-113.99000000000001, 53.800000000000004], [-113.99000000000001, 53.81], [-114.0, 53.81], [-114.0, 53.800000000000004]]]}}, {"type": "Feature", "properties": {"count": 103}, "geometry": {"type": "Polygon", "coordinates": [[[-114.01, 53.800000000000004], [-114.0, 53.800000000000004], [-114.0, 53.81], [-114.01, 53.81], [-114.01, 53.800000000000004]]]}}, {"type": "Feature", "properties": {"count": 179}, "geometry": {"type": "Polygon", "coordinates": [[[-114.01, 53.79], [-114.0, 53.79], [-114.0, 53.800000000000004], [-114.01, 53.800000000000004], [-114.01, 53.79]]]}}, {"type": "Feature", "properties": {"count": 34}, "geometry": {"type": "Polygon", "coordinates": [[[-114.0, 53.79], [-113.99000000000001, 53.79], [-113.99000000000001, 53.800000000000004], [-114.0, 53.800000000000004], [-114.0, 53.79]]]}}, {"type": "Feature", "properties": {"count": 76}, "geometry": {"type": "Polygon", "coordinates": [[[-114.02, 53.79], [-114.01, 53.79], [-114.01, 53.800000000000004], [-114.02, 53.800000000000004], [-114.02, 53.79]]]}}, {"type": "Feature", "properties": {"count": 28}, "geometry": {"type": "Polygon", "coordinates": [[[-114.02, 53.800000000000004], [-114.01, 53.800000000000004], [-114.01, 53.81], [-114.02, 53.81], [-114.02, 53.800000000000004]]]}}, {"type": "Feature", "properties": {"count": 3}, "geometry": {"type": "Polygon", "coordinates": [[[-114.0, 53.82], [-113.99000000000001, 53.82], [-113.99000000000001, 53.83], [-114.0, 53.83], [-114.0, 53.82]]]}}, {"type": "Feature", "properties": {"count": 74}, "geometry": {"type": "Polygon", "coordinates": [[[-114.01, 53.82], [-114.0, 53.82], [-114.0, 53.83], [-114.01, 53.83], [-114.01, 53.82]]]}}, {"type": "Feature", "properties": {"count": 117}, "geometry": {"type": "Polygon", "coordinates": [[[-114.01, 53.81], [-114.0, 53.81], [-114.0, 53.82], [-114.01, 53.82], [-114.01, 53.81]]]}}, {"type": "Feature", "properties": {"count": 161}, "geometry": {"type": "Polygon", "coordinates": [[[-114.02, 53.81], [-114.01, 53.81], [-114.01, 53.82], [-114.02, 53.82], [-114.02, 53.81]]]}}, {"type": "Feature", "properties": {"count": 7}, "geometry": {"type": "Polygon", "coordinates": [[[-114.0, 53.81], [-113.99000000000001, 53.81], [-113.99000000000001, 53.82], [-114.0, 53.82], [-114.0, 53.81]]]}}, {"type": "Feature", "properties": {"count": 61}, "geometry": {"type": "Polygon", "coordinates": [[[-114.02, 53.82], [-114.01, 53.82], [-114.01, 53.83], [-114.02, 53.83], [-114.02, 53.82]]]}}, {"type": "Feature", "properties": {"count": 43}, "geometry": {"type": "Polygon", "coordinates": [[[-114.01, 53.83], [-114.0, 53.83], [-114.0, 53.84], [-114.01, 53.84], [-114.01, 53.83]]]}}, {"type": "Feature", "properties": {"count": 20}, "geometry": {"type": "Polygon", "coordinates": [[[-114.03, 53.81], [-114.02, 53.81], [-114.02, 53.82], [-114.03, 53.82], [-114.03, 53.81]]]}}, {"type": "Feature", "properties": {"count": 6}, "geometry": {"type": "Polygon", "coordinates": [[[-114.03, 53.82], [-114.02, 53.82], [-114.02, 53.83], [-114.03, 53.83], [-114.03, 53.82]]]}}, {"type": "Feature", "properties": {"count": 26}, "geometry": {"type": "Polygon", "coordinates": [[[-114.01, 53.84], [-114.0, 53.84], [-114.0, 53.85], [-114.01, 53.85], [-114.01, 53.84]]]}}, {"type": "Feature", "properties": {"count": 87}, "geometry": {"type": "Polygon", "coordinates": [[[-114.02, 53.84], [-114.01, 53.84], [-114.01, 53.85], [-114.02, 53.85], [-114.02, 53.84]]]}}, {"type": "Feature", "properties": {"count": 177}, "geometry": {"type": "Polygon", "coordinates": [[[-114.02, 53.83], [-114.01, 53.83], [-114.01, 53.84], [-114.02, 53.84], [-114.02, 53.83]]]}}, {"type": "Feature", "properties": {"count": 93}, "geometry": {"type": "Polygon", "coordinates": [[[-114.03, 53.83], [-114.02, 53.83], [-114.02, 53.84], [-114.03, 53.84], [-114.03, 53.83]]]}}, {"type": "Feature", "properties": {"count": 25}, "geometry": {"type": "Polygon", "coordinates": [[[-114.03, 53.84], [-114.02, 53.84], [-114.02, 53.85], [-114.03, 53.85], [-114.03, 53.84]]]}}, {"type": "Feature", "properties": {"count": 2}, "geometry": {"type": "Polygon", "coordinates": [[[-114.04, 53.84], [-114.03, 53.84], [-114.03, 53.85], [-114.04, 53.85], [-114.04, 53.84]]]}}, {"type": "Feature", "properties": {"count": 6}, "geometry": {"type": "Polygon", "coordinates": [[[-114.01, 53.86], [-114.0, 53.86], [-114.0, 53.870000000000005], [-114.01, 53.870000000000005], [-114.01, 53.86]]]}}, {"type": "Feature", "properties": {"count": 49}, "geometry": {"type": "Polygon", "coordinates": [[[-114.02, 53.86], [-114.01, 53.86], [-114.01, 53.870000000000005], [-114.02, 53.870000000000005], [-114.02, 53.86]]]}}, {"type": "Feature", "properties": {"count": 123}, "geometry": {"type": "Polygon", "coordinates": [[[-114.02, 53.85], [-114.01, 53.85], [-114.01, 53.86], [-114.02, 53.86], [-114.02, 53.85]]]}}, {"type": "Feature", "properties": {"count": 183}, "geometry": {"type": "Polygon", "coordinates": [[[-114.03, 53.85], [-114.02, 53.85], [-114.02, 53.86], [-114.03, 53.86], [-114.03, 53.85]]]}}, {"type": "Feature", "properties": {"count": 10}, "geometry": {"type": "Polygon", "coordinates": [[[-114.01, 53.85], [-114.0, 53.85], [-114.0, 53.86], [-114.01, 53.86], [-114.01, 53.85]]]}}, {"type": "Feature", "properties": {"count": 57}, "geometry": {"type": "Polygon", "coordinates": [[[-114.03, 53.86], [-114.02, 53.86], [-114.02, 53.870000000000005], [-114.03, 53.870000000000005], [-114.03, 53.86]]]}}, {"type": "Feature", "properties": {"count": 16}, "geometry": {"type": "Polygon", "coordinates": [[[-114.04, 53.85], [-114.03, 53.85], [-114.03, 53.86], [-114.04, 53.86], [-114.04, 53.85]]]}}, {"type": "Feature", "properties": {"count": 11}, "geometry": {"type": "Polygon", "coordinates": [[[-114.04, 53.86], [-114.03, 53.86], [-114.03, 53.870000000000005], [-114.04, 53.870000000000005], [-114.04, 53.86]]]}}, {"type": "Feature", "properties": {"count": 18}, "geometry": {"type": "Polygon", "coordinates": [[[-114.02, 53.88], [-114.01, 53.88], [-114.01, 53.89], [-114.02, 53.89], [-114.02, 53.88]]]}}, {"type": "Feature", "properties": {"count": 58}, "geometry": {"type": "Polygon", "coordinates": [[[-114.03, 53.88], [-114.02, 53.88], [-114.02, 53.89], [-114.03, 53.89], [-114.03, 53.88]]]}}, {"type": "Feature", "properties": {"count": 189}, "geometry": {"type": "Polygon", "coordinates": [[[-114.03, 53.870000000000005], [-114.02, 53.870000000000005], [-114.02, 53.88], [-114.03, 53.88], [-114.03, 53.870000000000005]]]}}, {"type": "Feature", "properties": {"count": 55}, "geometry": {"type": "Polygon", "coordinates": [[[-114.02, 53.870000000000005], [-114.01, 53.870000000000005], [-114.01, 53.88], [-114.02, 53.88], [-114.02, 53.870000000000005]]]}}, {"type": "Feature", "properties": {"count": 103}, "geometry": {"type": "Polygon", "coordinates": [[[-114.04, 53.870000000000005], [-114.03, 53.870000000000005], [-114.03, 53.88], [-114.04, 53.88], [-114.04, 53.870000000000005]]]}}, {"type": "Feature", "properties": {"count": 27}, "geometry": {"type": "Polygon", "coordinates": [[[-114.04, 53.88], [-114.03, 53.88], [-114.03, 53.89], [-114.04, 53.89], [-114.04, 53.88]]]}}, {"type": "Feature", "properties": {"count": 4}, "geometry": {"type": "Polygon", "coordinates": [[[-114.05, 53.88], [-114.04, 53.88], [-114.04, 53.89], [-114.05, 53.89], [-114.05, 53.88]]]}}, {"type": "Feature", "properties": {"count": 3}, "geometry": {"type": "Polygon", "coordinates": [[[-114.05, 53.870000000000005], [-114.04, 53.870000000000005], [-114.04, 53.88], [-114.05, 53.88], [-114.05, 53.870000000000005]]]}}, {"type": "Feature", "properties": {"count": 2}, "geometry": {"type": "Polygon", "coordinates": [[[-114.02, 53.9], [-114.01, 53.9], [-114.01, 53.910000000000004], [-114.02, 53.910000000000004], [-114.02, 53.9]]]}}, {"type": "Feature", "properties": {"count": 33}, "geometry": {"type": "Polygon", "coordinates": [[[-114.03, 53.9], [-114.02, 53.9], [-114.02, 53.910000000000004], [-114.03, 53.910000000000004], [-114.03, 53.9]]]}}, {"type": "Feature", "properties": {"count": 140}, "geometry": {"type": "Polygon", "coordinates": [[[-114.03, 53.89], [-114.02, 53.89], [-114.02, 53.9], [-114.03, 53.9], [-114.03, 53.89]]]}}, {"type": "Feature", "properties": {"count": 175}, "geometry": {"type": "Polygon", "coordinates": [[[-114.04, 53.89], [-114.03, 53.89], [-114.03, 53.9], [-114.04, 53.9], [-114.04, 53.89]]]}}, {"type": "Feature", "properties": {"count": 18}, "geometry": {"type": "Polygon", "coordinates": [[[-114.02, 53.89], [-114.01, 53.89], [-114.01, 53.9], [-114.02, 53.9], [-114.02, 53.89]]]}}, {"type": "Feature", "properties": {"count": 39}, "geometry": {"type": "Polygon", "coordinates": [[[-114.04, 53.9], [-114.03, 53.9], [-114.03, 53.910000000000004], [-114.04, 53.910000000000004], [-114.04, 53.9]]]}}, {"type": "Feature", "properties": {"count": 36}, "geometry": {"type": "Polygon", "coordinates": [[[-114.05, 53.89], [-114.04, 53.89], [-114.04, 53.9], [-114.05, 53.9], [-114.05, 53.89]]]}}, {"type": "Feature", "properties": {"count": 18}, "geometry": {"type": "Polygon", "coordinates": [[[-114.05, 53.9], [-114.04, 53.9], [-114.04, 53.910000000000004], [-114.05, 53.910000000000004], [-114.05, 53.9]]]}}, {"type": "Feature", "properties": {"count": 13}, "geometry": {"type": "Polygon", "coordinates": [[[-114.03, 53.92], [-114.02, 53.92], [-114.02, 53.93], [-114.03, 53.93], [-114.03, 53.92]]]}}, {"type": "Feature", "properties": {"count": 193}, "geometry": {"type": "Polygon", "coordinates": [[[-114.04, 53.910000000000004], [-114.03, 53.910000000000004], [-114.03, 53.92], [-114.04, 53.92], [-114.04, 53.910000000000004]]]}}, {"type": "Feature", "properties": {"count": 62}, "geometry": {"type": "Polygon", "coordinates": [[[-114.03, 53.910000000000004], [-114.02, 53.910000000000004], [-114.02, 53.92], [-114.03, 53.92], [-114.03, 53.910000000000004]]]}}, {"type": "Feature", "properties": {"count": 43}, "geometry": {"type": "Polygon", "coordinates": [[[-114.05, 53.92], [-114.04, 53.92], [-114.04, 53.93], [-114.05, 53.93], [-114.05, 53.92]]]}}, {"type": "Feature", "properties": {"count": 36}, "geometry": {"type": "Polygon", "coordinates": [[[-114.04, 53.92], [-114.03, 53.92], [-114.03, 53.93], [-114.04, 53.93], [-114.04, 53.92]]]}}, {"type": "Feature", "properties": {"count": 112}, "geometry": {"type": "Polygon", "coordinates": [[[-114.05, 53.910000000000004], [-114.04, 53.910000000000004], [-114.04, 53.92], [-114.05, 53.92], [-114.05, 53.910000000000004]]]}}, {"type": "Feature", "properties": {"count": 2}, "geometry": {"type": "Polygon", "coordinates": [[[-114.02, 53.910000000000004], [-114.01, 53.910000000000004], [-114.01, 53.92], [-114.02, 53.92], [-114.02, 53.910000000000004]]]}}, {"type": "Feature", "properties": {"count": 4}, "geometry": {"type": "Polygon", "coordinates": [[[-114.06, 53.910000000000004], [-114.05, 53.910000000000004], [-114.05, 53.92], [-114.06, 53.92], [-114.06, 53.910000000000004]]]}}, {"type": "Feature", "properties": {"count": 2}, "geometry": {"type": "Polygon", "coordinates": [[[-114.03, 53.94], [-114.02, 53.94], [-114.02, 53.95], [-114.03, 53.95], [-114.03, 53.94]]]}}, {"type": "Feature", "properties": {"count": 122}, "geometry": {"type": "Polygon", "coordinates": [[[-114.04, 53.93], [-114.03, 53.93], [-114.03, 53.94], [-114.04, 53.94], [-114.04, 53.93]]]}}, {"type": "Feature", "properties": {"count": 174}, "geometry": {"type": "Polygon", "coordinates": [[[-114.05, 53.93], [-114.04, 53.93], [-114.04, 53.94], [-114.05, 53.94], [-114.05, 53.93]]]}}, {"type": "Feature", "properties": {"count": 21}, "geometry": {"type": "Polygon", "coordinates": [[[-114.03, 53.93], [-114.02, 53.93], [-114.02, 53.94], [-114.03, 53.94], [-114.03, 53.93]]]}}, {"type": "Feature", "properties": {"count": 49}, "geometry": {"type": "Polygon", "coordinates": [[[-114.05, 53.94], [-114.04, 53.94], [-114.04, 53.95], [-114.05, 53.95], [-114.05, 53.94]]]}}, {"type": "Feature", "properties": {"count": 25}, "geometry": {"type": "Polygon", "coordinates": [[[-114.04, 53.94], [-114.03, 53.94], [-114.03, 53.95], [-114.04, 53.95], [-114.04, 53.94]]]}}, {"type": "Feature", "properties": {"count": 28}, "geometry": {"type": "Polygon", "coordinates": [[[-114.06, 53.94], [-114.05, 53.94], [-114.05, 53.95], [-114.06, 53.95], [-114.06, 53.94]]]}}, {"type": "Feature", "properties": {"count": 41}, "geometry": {"type": "Polygon", "coordinates": [[[-114.06, 53.93], [-114.05, 53.93], [-114.05, 53.94], [-114.06, 53.94], [-114.06, 53.93]]]}}, {"type": "Feature", "properties": {"count": 5}, "geometry": {"type": "Polygon", "coordinates": [[[-114.06, 53.92], [-114.05, 53.92], [-114.05, 53.93], [-114.06, 53.93], [-114.06, 53.92]]]}}, {"type": "Feature", "properties": {"count": 9}, "geometry": {"type": "Polygon", "coordinates": [[[-114.04, 53.96], [-114.03, 53.96], [-114.03, 53.97], [-114.04, 53.97], [-114.04, 53.96]]]}}, {"type": "Feature", "properties": {"count": 51}, "geometry": {"type": "Polygon", "coordinates": [[[-114.04, 53.95], [-114.03, 53.95], [-114.03, 53.96], [-114.04, 53.96], [-114.04, 53.95]]]}}, {"type": "Feature", "properties": {"count": 176}, "geometry": {"type": "Polygon", "coordinates": [[[-114.05, 53.95], [-114.04, 53.95], [-114.04, 53.96], [-114.05, 53.96], [-114.05, 53.95]]]}}, {"type": "Feature", "properties": {"count": 116}, "geometry": {"type": "Polygon", "coordinates": [[[-114.06, 53.95], [-114.05, 53.95], [-114.05, 53.96], [-114.06, 53.96], [-114.06, 53.95]]]}}, {"type": "Feature", "properties": {"count": 54}, "geometry": {"type": "Polygon", "coordinates": [[[-114.06, 53.96], [-114.05, 53.96], [-114.05, 53.97], [-114.06, 53.97], [-114.06, 53.96]]]}}, {"type": "Feature", "properties": {"count": 3}, "geometry": {"type": "Polygon", "coordinates": [[[-114.03, 53.95], [-114.02, 53.95], [-114.02, 53.96], [-114.03, 53.96], [-114.03, 53.95]]]}}, {"type": "Feature", "properties": {"count": 41}, "geometry": {"type": "Polygon", "coordinates": [[[-114.05, 53.96], [-114.04, 53.96], [-114.04, 53.97], [-114.05, 53.97], [-114.05, 53.96]]]}}, {"type": "Feature", "properties": {"count": 9}, "geometry": {"type": "Polygon", "coordinates": [[[-114.07000000000001, 53.95], [-114.06, 53.95], [-114.06, 53.96], [-114.07000000000001, 53.96], [-114.07000000000001, 53.95]]]}}, {"type": "Feature", "properties": {"count": 107}, "geometry": {"type": "Polygon", "coordinates": [[[-114.05, 53.97], [-114.04, 53.97], [-114.04, 53.980000000000004], [-114.05, 53.980000000000004], [-114.05, 53.97]]]}}, {"type": "Feature", "properties": {"count": 163}, "geometry": {"type": "Polygon", "coordinates": [[[-114.06, 53.97], [-114.05, 53.97], [-114.05, 53.980000000000004], [-114.06, 53.980000000000004], [-114.06, 53.97]]]}}, {"type": "Feature", "properties": {"count": 25}, "geometry": {"type": "Polygon", "coordinates": [[[-114.04, 53.97], [-114.03, 53.97], [-114.03, 53.980000000000004], [-114.04, 53.980000000000004], [-114.04, 53.97]]]}}, {"type": "Feature", "properties": {"count": 64}, "geometry": {"type": "Polygon", "coordinates": [[[-114.06, 53.980000000000004], [-114.05, 53.980000000000004], [-114.05, 53.99], [-114.06, 53.99], [-114.06, 53.980000000000004]]]}}, {"type": "Feature", "properties": {"count": 45}, "geometry": {"type": "Polygon", "coordinates": [[[-114.07000000000001, 53.97], [-114.06, 53.97], [-114.06, 53.980000000000004], [-114.07000000000001, 53.980000000000004], [-114.07000000000001, 53.97]]]}}, {"type": "Feature", "properties": {"count": 14}, "geometry": {"type": "Polygon", "coordinates": [[[-114.07000000000001, 53.96], [-114.06, 53.96], [-114.06, 53.97], [-114.07000000000001, 53.97], [-114.07000000000001, 53.96]]]}}, {"type": "Feature", "properties": {"count": 51}, "geometry": {"type": "Polygon", "coordinates": [[[-114.05, 53.99], [-114.04, 53.99], [-114.04, 54.0], [-114.05, 54.0], [-114.05, 53.99]]]}}, {"type": "Feature", "properties": {"count": 141}, "geometry": {"type": "Polygon", "coordinates": [[[-114.06, 53.99], [-114.05, 53.99], [-114.05, 54.0], [-114.06, 54.0], [-114.06, 53.99]]]}}, {"type": "Feature", "properties": {"count": 120}, "geometry": {"type": "Polygon", "coordinates": [[[-114.07000000000001, 53.99], [-114.06, 53.99], [-114.06, 54.0], [-114.07000000000001, 54.0], [-114.07000000000001, 53.99]]]}}, {"type": "Feature", "properties": {"count": 70}, "geometry": {"type": "Polygon", "coordinates": [[[-114.07000000000001, 54.0], [-114.06, 54.0], [-114.06, 54.01], [-114.07000000000001, 54.01], [-114.07000000000001, 54.0]]]}}, {"type": "Feature", "properties": {"count": 4}, "geometry": {"type": "Polygon", "coordinates": [[[-114.04, 53.99], [-114.03, 53.99], [-114.03, 54.0], [-114.04, 54.0], [-114.04, 53.99]]]}}, {"type": "Feature", "properties": {"count": 40}, "geometry": {"type": "Polygon", "coordinates": [[[-114.07000000000001, 53.980000000000004], [-114.06, 53.980000000000004], [-114.06, 53.99], [-114.07000000000001, 53.99], [-114.07000000000001, 53.980000000000004]]]}}, {"type": "Feature", "properties": {"count": 21}, "geometry": {"type": "Polygon", "coordinates": [[[-114.05, 53.980000000000004], [-114.04, 53.980000000000004], [-114.04, 53.99], [-114.05, 53.99], [-114.05, 53.980000000000004]]]}}, {"type": "Feature", "properties": {"count": 5}, "geometry": {"type": "Polygon", "coordinates": [[[-114.08, 53.980000000000004], [-114.07000000000001, 53.980000000000004], [-114.07000000000001, 53.99], [-114.08, 53.99], [-114.08, 53.980000000000004]]]}}, {"type": "Feature", "properties": {"count": 11}, "geometry": {"type": "Polygon", "coordinates": [[[-114.08, 53.99], [-114.07000000000001, 53.99], [-114.07000000000001, 54.0], [-114.08, 54.0], [-114.08, 53.99]]]}}, {"type": "Feature", "properties": {"count": 24}, "geometry": {"type": "Polygon", "coordinates": [[[-114.08, 54.0], [-114.07000000000001, 54.0], [-114.07000000000001, 54.01], [-114.08, 54.01], [-114.08, 54.0]]]}}, {"type": "Feature", "properties": {"count": 23}, "geometry": {"type": "Polygon", "coordinates": [[[-114.05, 54.01], [-114.04, 54.01], [-114.04, 54.02], [-114.05, 54.02], [-114.05, 54.01]]]}}, {"type": "Feature", "properties": {"count": 93}, "geometry": {"type": "Polygon", "coordinates": [[[-114.06, 54.01], [-114.05, 54.01], [-114.05, 54.02], [-114.06, 54.02], [-114.06, 54.01]]]}}, {"type": "Feature", "properties": {"count": 138}, "geometry": {"type": "Polygon", "coordinates": [[[-114.07000000000001, 54.01], [-114.06, 54.01], [-114.06, 54.02], [-114.07000000000001, 54.02], [-114.07000000000001, 54.01]]]}}, {"type": "Feature", "properties": {"count": 42}, "geometry": {"type": "Polygon", "coordinates": [[[-114.06, 54.0], [-114.05, 54.0], [-114.05, 54.01], [-114.06, 54.01], [-114.06, 54.0]]]}}, {"type": "Feature", "properties": {"count": 57}, "geometry": {"type": "Polygon", "coordinates": [[[-114.08, 54.01], [-114.07000000000001, 54.01], [-114.07000000000001, 54.02], [-114.08, 54.02], [-114.08, 54.01]]]}}, {"type": "Feature", "properties": {"count": 8}, "geometry": {"type": "Polygon", "coordinates": [[[-114.05, 54.0], [-114.04, 54.0], [-114.04, 54.01], [-114.05, 54.01], [-114.05, 54.0]]]}}, {"type": "Feature", "properties": {"count": 69}, "geometry": {"type": "Polygon", "coordinates": [[[-114.08, 54.02], [-114.07000000000001, 54.02], [-114.07000000000001, 54.03], [-114.08, 54.03], [-114.08, 54.02]]]}}, {"type": "Feature", "properties": {"count": 40}, "geometry": {"type": "Polygon", "coordinates": [[[-114.06, 54.03], [-114.05, 54.03], [-114.05, 54.04], [-114.06, 54.04], [-114.06, 54.03]]]}}, {"type": "Feature", "properties": {"count": 121}, "geometry": {"type": "Polygon", "coordinates": [[[-114.07000000000001, 54.03], [-114.06, 54.03], [-114.06, 54.04], [-114.07000000000001, 54.04], [-114.07000000000001, 54.03]]]}}, {"type": "Feature", "properties": {"count": 110}, "geometry": {"type": "Polygon", "coordinates": [[[-114.08, 54.03], [-114.07000000000001, 54.03], [-114.07000000000001, 54.04], [-114.08, 54.04], [-114.08, 54.03]]]}}, {"type": "Feature", "properties": {"count": 17}, "geometry": {"type": "Polygon", "coordinates": [[[-114.06, 54.02], [-114.05, 54.02], [-114.05, 54.03], [-114.06, 54.03], [-114.06, 54.02]]]}}, {"type": "Feature", "properties": {"count": 66}, "geometry": {"type": "Polygon", "coordinates": [[[-114.07000000000001, 54.02], [-114.06, 54.02], [-114.06, 54.03], [-114.07000000000001, 54.03], [-114.07000000000001, 54.02]]]}}, {"type": "Feature", "properties": {"count": 2}, "geometry": {"type": "Polygon", "coordinates": [[[-114.05, 54.03], [-114.04, 54.03], [-114.04, 54.04], [-114.05, 54.04], [-114.05, 54.03]]]}}, {"type": "Feature", "properties": {"count": 10}, "geometry": {"type": "Polygon", "coordinates": [[[-114.09, 54.02], [-114.08, 54.02], [-114.08, 54.03], [-114.09, 54.03], [-114.09, 54.02]]]}}, {"type": "Feature", "properties": {"count": 20}, "geometry": {"type": "Polygon", "coordinates": [[[-114.09, 54.03], [-114.08, 54.03], [-114.08, 54.04], [-114.09, 54.04], [-114.09, 54.03]]]}}, {"type": "Feature", "properties": {"count": 45}, "geometry": {"type": "Polygon", "coordinates": [[[-114.09, 54.04], [-114.08, 54.04], [-114.08, 54.050000000000004], [-114.09, 54.050000000000004], [-114.09, 54.04]]]}}, {"type": "Feature", "properties": {"count": 71}, "geometry": {"type": "Polygon", "coordinates": [[[-114.07000000000001, 54.050000000000004], [-114.06, 54.050000000000004], [-114.06, 54.06], [-114.07000000000001, 54.06], [-114.07000000000001, 54.050000000000004]]]}}, {"type": "Feature", "properties": {"count": 118}, "geometry": {"type": "Polygon", "coordinates": [[[-114.08, 54.050000000000004], [-114.07000000000001, 54.050000000000004], [-114.07000000000001, 54.06], [-114.08, 54.06], [-114.08, 54.050000000000004]]]}}, {"type": "Feature", "properties": {"count": 7}, "geometry": {"type": "Polygon", "coordinates": [[[-114.06, 54.04], [-114.05, 54.04], [-114.05, 54.050000000000004], [-114.06, 54.050000000000004], [-114.06, 54.04]]]}}, {"type": "Feature", "properties": {"count": 40}, "geometry": {"type": "Polygon", "coordinates": [[[-114.07000000000001, 54.04], [-114.06, 54.04], [-114.06, 54.050000000000004], [-114.07000000000001, 54.050000000000004], [-114.07000000000001, 54.04]]]}}, {"type": "Feature", "properties": {"count": 72}, "geometry": {"type": "Polygon", "coordinates": [[[-114.09, 54.050000000000004], [-114.08, 54.050000000000004], [-114.08, 54.06], [-114.09, 54.06], [-114.09, 54.050000000000004]]]}}, {"type": "Feature", "properties": {"count": 83}, "geometry": {"type": "Polygon", "coordinates": [[[-114.08, 54.04], [-114.07000000000001, 54.04], [-114.07000000000001, 54.050000000000004], [-114.08, 54.050000000000004], [-114.08, 54.04]]]}}, {"type": "Feature", "properties": {"count": 9}, "geometry": {"type": "Polygon", "coordinates": [[[-114.06, 54.050000000000004], [-114.05, 54.050000000000004], [-114.05, 54.06], [-114.06, 54.06], [-114.06, 54.050000000000004]]]}}, {"type": "Feature", "properties": {"count": 5}, "geometry": {"type": "Polygon", "coordinates": [[[-114.10000000000001, 54.050000000000004], [-114.09, 54.050000000000004], [-114.09, 54.06], [-114.10000000000001, 54.06], [-114.10000000000001, 54.050000000000004]]]}}, {"type": "Feature", "properties": {"count": 3}, "geometry": {"type": "Polygon", "coordinates": [[[-114.10000000000001, 54.04], [-114.09, 54.04], [-114.09, 54.050000000000004], [-114.10000000000001, 54.050000000000004], [-114.10000000000001, 54.04]]]}}, {"type": "Feature", "properties": {"count": 95}, "geometry": {"type": "Polygon", "coordinates": [[[-114.09, 54.06], [-114.08, 54.06], [-114.08, 54.07], [-114.09, 54.07], [-114.09, 54.06]]]}}, {"type": "Feature", "properties": {"count": 22}, "geometry": {"type": "Polygon", "coordinates": [[[-114.07000000000001, 54.07], [-114.06, 54.07], [-114.06, 54.08], [-114.07000000000001, 54.08], [-114.07000000000001, 54.07]]]}}, {"type": "Feature", "properties": {"count": 93}, "geometry": {"type": "Polygon", "coordinates": [[[-114.08, 54.07], [-114.07000000000001, 54.07], [-114.07000000000001, 54.08], [-114.08, 54.08], [-114.08, 54.07]]]}}, {"type": "Feature", "properties": {"count": 105}, "geometry": {"type": "Polygon", "coordinates": [[[-114.09, 54.07], [-114.08, 54.07], [-114.08, 54.08], [-114.09, 54.08], [-114.09, 54.07]]]}}, {"type": "Feature", "properties": {"count": 22}, "geometry": {"type": "Polygon", "coordinates": [[[-114.07000000000001, 54.06], [-114.06, 54.06], [-114.06, 54.07], [-114.07000000000001, 54.07], [-114.07000000000001, 54.06]]]}}, {"type": "Feature", "properties": {"count": 54}, "geometry": {"type": "Polygon", "coordinates": [[[-114.08, 54.06], [-114.07000000000001, 54.06], [-114.07000000000001, 54.07], [-114.08, 54.07], [-114.08, 54.06]]]}}, {"type": "Feature", "properties": {"count": 40}, "geometry": {"type": "Polygon", "coordinates": [[[-114.10000000000001, 54.07], [-114.09, 54.07], [-114.09, 54.08], [-114.10000000000001, 54.08], [-114.10000000000001, 54.07]]]}}, {"type": "Feature", "properties": {"count": 19}, "geometry": {"type": "Polygon", "coordinates": [[[-114.10000000000001, 54.06], [-114.09, 54.06], [-114.09, 54.07], [-114.10000000000001, 54.07], [-114.10000000000001, 54.06]]]}}, {"type": "Feature", "properties": {"count": 82}, "geometry": {"type": "Polygon", "coordinates": [[[-114.10000000000001, 54.08], [-114.09, 54.08], [-114.09, 54.09], [-114.10000000000001, 54.09], [-114.10000000000001, 54.08]]]}}, {"type": "Feature", "properties": {"count": 83}, "geometry": {"type": "Polygon", "coordinates": [[[-114.09, 54.08], [-114.08, 54.08], [-114.08, 54.09], [-114.09, 54.09], [-114.09, 54.08]]]}}, {"type": "Feature", "properties": {"count": 36}, "geometry": {"type": "Polygon", "coordinates": [[[-114.08, 54.09], [-114.07000000000001, 54.09], [-114.07000000000001, 54.1], [-114.08, 54.1], [-114.08, 54.09]]]}}, {"type": "Feature", "properties": {"count": 100}, "geometry": {"type": "Polygon", "coordinates": [[[-114.09, 54.09], [-114.08, 54.09], [-114.08, 54.1], [-114.09, 54.1], [-114.09, 54.09]]]}}, {"type": "Feature", "properties": {"count": 31}, "geometry": {"type": "Polygon", "coordinates": [[[-114.08, 54.08], [-114.07000000000001, 54.08], [-114.07000000000001, 54.09], [-114.08, 54.09], [-114.08, 54.08]]]}}, {"type": "Feature", "properties": {"count": 87}, "geometry": {"type": "Polygon", "coordinates": [[[-114.10000000000001, 54.09], [-114.09, 54.09], [-114.09, 54.1], [-114.10000000000001, 54.1], [-114.10000000000001, 54.09]]]}}, {"type": "Feature", "properties": {"count": 3}, "geometry": {"type": "Polygon", "coordinates": [[[-114.07000000000001, 54.08], [-114.06, 54.08], [-114.06, 54.09], [-114.07000000000001, 54.09], [-114.07000000000001, 54.08]]]}}, {"type": "Feature", "properties": {"count": 17}, "geometry": {"type": "Polygon", "coordinates": [[[-114.11, 54.09], [-114.10000000000001, 54.09], [-114.10000000000001, 54.1], [-114.11, 54.1], [-114.11, 54.09]]]}}, {"type": "Feature", "properties": {"count": 3}, "geometry": {"type": "Polygon", "coordinates": [[[-114.07000000000001, 54.09], [-114.06, 54.09], [-114.06, 54.1], [-114.07000000000001, 54.1], [-114.07000000000001, 54.09]]]}}, {"type": "Feature", "properties": {"count": 100}, "geometry": {"type": "Polygon", "coordinates": [[[-114.10000000000001, 54.1], [-114.09, 54.1], [-114.09, 54.11], [-114.10000000000001, 54.11], [-114.10000000000001, 54.1]]]}}, {"type": "Feature", "properties": {"count": 8}, "geometry": {"type": "Polygon", "coordinates": [[[-114.11, 54.08], [-114.10000000000001, 54.08], [-114.10000000000001, 54.09], [-114.11, 54.09], [-114.11, 54.08]]]}}, {"type": "Feature", "properties": {"count": 52}, "geometry": {"type": "Polygon", "coordinates": [[[-114.11, 54.1], [-114.10000000000001, 54.1], [-114.10000000000001, 54.11], [-114.11, 54.11], [-114.11, 54.1]]]}}, {"type": "Feature", "properties": {"count": 60}, "geometry": {"type": "Polygon", "coordinates": [[[-114.09, 54.11], [-114.08, 54.11], [-114.08, 54.120000000000005], [-114.09, 54.120000000000005], [-114.09, 54.11]]]}}, {"type": "Feature", "properties": {"count": 95}, "geometry": {"type": "Polygon", "coordinates": [[[-114.10000000000001, 54.11], [-114.09, 54.11], [-114.09, 54.120000000000005], [-114.10000000000001, 54.120000000000005], [-114.10000000000001, 54.11]]]}}, {"type": "Feature", "properties": {"count": 7}, "geometry": {"type": "Polygon", "coordinates": [[[-114.08, 54.1], [-114.07000000000001, 54.1], [-114.07000000000001, 54.11], [-114.08, 54.11], [-114.08, 54.1]]]}}, {"type": "Feature", "properties": {"count": 49}, "geometry": {"type": "Polygon", "coordinates": [[[-114.09, 54.1], [-114.08, 54.1], [-114.08, 54.11], [-114.09, 54.11], [-114.09, 54.1]]]}}, {"type": "Feature", "properties": {"count": 70}, "geometry": {"type": "Polygon", "coordinates": [[[-114.11, 54.11], [-114.10000000000001, 54.11], [-114.10000000000001, 54.120000000000005], [-114.11, 54.120000000000005], [-114.11, 54.11]]]}}, {"type": "Feature", "properties": {"count": 6}, "geometry": {"type": "Polygon", "coordinates": [[[-114.08, 54.11], [-114.07000000000001, 54.11], [-114.07000000000001, 54.120000000000005], [-114.08, 54.120000000000005], [-114.08, 54.11]]]}}, {"type": "Feature", "properties": {"count": 104}, "geometry": {"type": "Polygon", "coordinates": [[[-114.11, 54.120000000000005], [-114.10000000000001, 54.120000000000005], [-114.10000000000001, 54.13], [-114.11, 54.13], [-114.11, 54.120000000000005]]]}}, {"type": "Feature", "properties": {"count": 4}, "geometry": {"type": "Polygon", "coordinates": [[[-114.12, 54.1], [-114.11, 54.1], [-114.11, 54.11], [-114.12, 54.11], [-114.12, 54.1]]]}}, {"type": "Feature", "properties": {"count": 26}, "geometry": {"type": "Polygon", "coordinates": [[[-114.12, 54.120000000000005], [-114.11, 54.120000000000005], [-114.11, 54.13], [-114.12, 54.13], [-114.12, 54.120000000000005]]]}}, {"type": "Feature", "properties": {"count": 4}, "geometry": {"type": "Polygon", "coordinates": [[[-114.12, 54.11], [-114.11, 54.11], [-114.11, 54.120000000000005], [-114.12, 54.120000000000005], [-114.12, 54.11]]]}}, {"type": "Feature", "properties": {"count": 79}, "geometry": {"type": "Polygon", "coordinates": [[[-114.10000000000001, 54.13], [-114.09, 54.13], [-114.09, 54.14], [-114.10000000000001, 54.14], [-114.10000000000001, 54.13]]]}}, {"type": "Feature", "properties": {"count": 97}, "geometry": {"type": "Polygon", "coordinates": [[[-114.11, 54.13], [-114.10000000000001, 54.13], [-114.10000000000001, 54.14], [-114.11, 54.14], [-114.11, 54.13]]]}}, {"type": "Feature", "properties": {"count": 18}, "geometry": {"type": "Polygon", "coordinates": [[[-114.09, 54.120000000000005], [-114.08, 54.120000000000005], [-114.08, 54.13], [-114.09, 54.13], [-114.09, 54.120000000000005]]]}}, {"type": "Feature", "properties": {"count": 63}, "geometry": {"type": "Polygon", "coordinates": [[[-114.10000000000001, 54.120000000000005], [-114.09, 54.120000000000005], [-114.09, 54.13], [-114.10000000000001, 54.13], [-114.10000000000001, 54.120000000000005]]]}}, {"type": "Feature", "properties": {"count": 46}, "geometry": {"type": "Polygon", "coordinates": [[[-114.12, 54.13], [-114.11, 54.13], [-114.11, 54.14], [-114.12, 54.14], [-114.12, 54.13]]]}}, {"type": "Feature", "properties": {"count": 2}, "geometry": {"type": "Polygon", "coordinates": [[[-114.08, 54.120000000000005], [-114.07000000000001, 54.120000000000005], [-114.07000000000001, 54.13], [-114.08, 54.13], [-114.08, 54.120000000000005]]]}}, {"type": "Feature", "properties": {"count": 22}, "geometry": {"type": "Polygon", "coordinates": [[[-114.09, 54.13], [-114.08, 54.13], [-114.08, 54.14], [-114.09, 54.14], [-114.09, 54.13]]]}}, {"type": "Feature", "properties": {"count": 83}, "geometry": {"type": "Polygon", "coordinates": [[[-114.12, 54.14], [-114.11, 54.14], [-114.11, 54.15], [-114.12, 54.15], [-114.12, 54.14]]]}}, {"type": "Feature", "properties": {"count": 8}, "geometry": {"type": "Polygon", "coordinates": [[[-114.13, 54.14], [-114.12, 54.14], [-114.12, 54.15], [-114.13, 54.15], [-114.13, 54.14]]]}}, {"type": "Feature", "properties": {"count": 36}, "geometry": {"type": "Polygon", "coordinates": [[[-114.10000000000001, 54.15], [-114.09, 54.15], [-114.09, 54.160000000000004], [-114.10000000000001, 54.160000000000004], [-114.10000000000001, 54.15]]]}}, {"type": "Feature", "properties": {"count": 93}, "geometry": {"type": "Polygon", "coordinates": [[[-114.11, 54.15], [-114.10000000000001, 54.15], [-114.10000000000001, 54.160000000000004], [-114.11, 54.160000000000004], [-114.11, 54.15]]]}}, {"type": "Feature", "properties": {"count": 80}, "geometry": {"type": "Polygon", "coordinates": [[[-114.11, 54.14], [-114.10000000000001, 54.14], [-114.10000000000001, 54.15], [-114.11, 54.15], [-114.11, 54.14]]]}}, {"type": "Feature", "properties": {"count": 93}, "geometry": {"type": "Polygon", "coordinates": [[[-114.12, 54.15], [-114.11, 54.15], [-114.11, 54.160000000000004], [-114.12, 54.160000000000004], [-114.12, 54.15]]]}}, {"type": "Feature", "properties": {"count": 30}, "geometry": {"type": "Polygon", "coordinates": [[[-114.10000000000001, 54.14], [-114.09, 54.14], [-114.09, 54.15], [-114.10000000000001, 54.15], [-114.10000000000001, 54.14]]]}}, {"type": "Feature", "properties": {"count": 2}, "geometry": {"type": "Polygon", "coordinates": [[[-114.09, 54.14], [-114.08, 54.14], [-114.08, 54.15], [-114.09, 54.15], [-114.09, 54.14]]]}}, {"type": "Feature", "properties": {"count": 21}, "geometry": {"type": "Polygon", "coordinates": [[[-114.13, 54.15], [-114.12, 54.15], [-114.12, 54.160000000000004], [-114.13, 54.160000000000004], [-114.13, 54.15]]]}}, {"type": "Feature", "properties": {"count": 3}, "geometry": {"type": "Polygon", "coordinates": [[[-114.09, 54.15], [-114.08, 54.15], [-114.08, 54.160000000000004], [-114.09, 54.160000000000004], [-114.09, 54.15]]]}}, {"type": "Feature", "properties": {"count": 51}, "geometry": {"type": "Polygon", "coordinates": [[[-114.13, 54.160000000000004], [-114.12, 54.160000000000004], [-114.12, 54.17], [-114.13, 54.17], [-114.13, 54.160000000000004]]]}}, {"type": "Feature", "properties": {"count": 93}, "geometry": {"type": "Polygon", "coordinates": [[[-114.12, 54.160000000000004], [-114.11, 54.160000000000004], [-114.11, 54.17], [-114.12, 54.17], [-114.12, 54.160000000000004]]]}}, {"type": "Feature", "properties": {"count": 60}, "geometry": {"type": "Polygon", "coordinates": [[[-114.11, 54.17], [-114.10000000000001, 54.17], [-114.10000000000001, 54.18], [-114.11, 54.18], [-114.11, 54.17]]]}}, {"type": "Feature", "properties": {"count": 98}, "geometry": {"type": "Polygon", "coordinates": [[[-114.12, 54.17], [-114.11, 54.17], [-114.11, 54.18], [-114.12, 54.18], [-114.12, 54.17]]]}}, {"type": "Feature", "properties": {"count": 48}, "geometry": {"type": "Polygon", "coordinates": [[[-114.11, 54.160000000000004], [-114.10000000000001, 54.160000000000004], [-114.10000000000001, 54.17], [-114.11, 54.17], [-114.11, 54.160000000000004]]]}}, {"type": "Feature", "properties": {"count": 69}, "geometry": {"type": "Polygon", "coordinates": [[[-114.13, 54.17], [-114.12, 54.17], [-114.12, 54.18], [-114.13, 54.18], [-114.13, 54.17]]]}}, {"type": "Feature", "properties": {"count": 7}, "geometry": {"type": "Polygon", "coordinates": [[[-114.10000000000001, 54.160000000000004], [-114.09, 54.160000000000004], [-114.09, 54.17], [-114.10000000000001, 54.17], [-114.10000000000001, 54.160000000000004]]]}}, {"type": "Feature", "properties": {"count": 12}, "geometry": {"type": "Polygon", "coordinates": [[[-114.14, 54.17], [-114.13, 54.17], [-114.13, 54.18], [-114.14, 54.18], [-114.14, 54.17]]]}}, {"type": "Feature", "properties": {"count": 5}, "geometry": {"type": "Polygon", "coordinates": [[[-114.10000000000001, 54.17], [-114.09, 54.17], [-114.09, 54.18], [-114.10000000000001, 54.18], [-114.10000000000001, 54.17]]]}}, {"type": "Feature", "properties": {"count": 24}, "geometry": {"type": "Polygon", "coordinates": [[[-114.14, 54.18], [-114.13, 54.18], [-114.13, 54.19], [-114.14, 54.19], [-114.14, 54.18]]]}}, {"type": "Feature", "properties": {"count": 4}, "geometry": {"type": "Polygon", "coordinates": [[[-114.14, 54.160000000000004], [-114.13, 54.160000000000004], [-114.13, 54.17], [-114.14, 54.17], [-114.14, 54.160000000000004]]]}}, {"type": "Feature", "properties": {"count": 105}, "geometry": {"type": "Polygon", "coordinates": [[[-114.13, 54.18], [-114.12, 54.18], [-114.12, 54.19], [-114.13, 54.19], [-114.13, 54.18]]]}}, {"type": "Feature", "properties": {"count": 68}, "geometry": {"type": "Polygon", "coordinates": [[[-114.12, 54.19], [-114.11, 54.19], [-114.11, 54.2], [-114.12, 54.2], [-114.12, 54.19]]]}}, {"type": "Feature", "properties": {"count": 35}, "geometry": {"type": "Polygon", "coordinates": [[[-114.12, 54.2], [-114.11, 54.2], [-114.11, 54.21], [-114.12, 54.21], [-114.12, 54.2]]]}}, {"type": "Feature", "properties": {"count": 97}, "geometry": {"type": "Polygon", "coordinates": [[[-114.13, 54.19], [-114.12, 54.19], [-114.12, 54.2], [-114.13, 54.2], [-114.13, 54.19]]]}}, {"type": "Feature", "properties": {"count": 15}, "geometry": {"type": "Polygon", "coordinates": [[[-114.11, 54.18], [-114.10000000000001, 54.18], [-114.10000000000001, 54.19], [-114.11, 54.19], [-114.11, 54.18]]]}}, {"type": "Feature", "properties": {"count": 60}, "geometry": {"type": "Polygon", "coordinates": [[[-114.12, 54.18], [-114.11, 54.18], [-114.11, 54.19], [-114.12, 54.19], [-114.12, 54.18]]]}}, {"type": "Feature", "properties": {"count": 48}, "geometry": {"type": "Polygon", "coordinates": [[[-114.14, 54.19], [-114.13, 54.19], [-114.13, 54.2], [-114.14, 54.2], [-114.14, 54.19]]]}}, {"type": "Feature", "properties": {"count": 22}, "geometry": {"type": "Polygon", "coordinates": [[[-114.11, 54.19], [-114.10000000000001, 54.19], [-114.10000000000001, 54.2], [-114.11, 54.2], [-114.11, 54.19]]]}}, {"type": "Feature", "properties": {"count": 2}, "geometry": {"type": "Polygon", "coordinates": [[[-114.10000000000001, 54.19], [-114.09, 54.19], [-114.09, 54.2], [-114.10000000000001, 54.2], [-114.10000000000001, 54.19]]]}}, {"type": "Feature", "properties": {"count": 83}, "geometry": {"type": "Polygon", "coordinates": [[[-114.14, 54.2], [-114.13, 54.2], [-114.13, 54.21], [-114.14, 54.21], [-114.14, 54.2]]]}}, {"type": "Feature", "properties": {"count": 2}, "geometry": {"type": "Polygon", "coordinates": [[[-114.15, 54.18], [-114.14, 54.18], [-114.14, 54.19], [-114.15, 54.19], [-114.15, 54.18]]]}}, {"type": "Feature", "properties": {"count": 17}, "geometry": {"type": "Polygon", "coordinates": [[[-114.15, 54.2], [-114.14, 54.2], [-114.14, 54.21], [-114.15, 54.21], [-114.15, 54.2]]]}}, {"type": "Feature", "properties": {"count": 6}, "geometry": {"type": "Polygon", "coordinates": [[[-114.15, 54.19], [-114.14, 54.19], [-114.14, 54.2], [-114.15, 54.2], [-114.15, 54.19]]]}}, {"type": "Feature", "properties": {"count": 79}, "geometry": {"type": "Polygon", "coordinates": [[[-114.13, 54.2], [-114.12, 54.2], [-114.12, 54.21], [-114.13, 54.21], [-114.13, 54.2]]]}}, {"type": "Feature", "properties": {"count": 88}, "geometry": {"type": "Polygon", "coordinates": [[[-114.13, 54.21], [-114.12, 54.21], [-114.12, 54.22], [-114.13, 54.22], [-114.13, 54.21]]]}}, {"type": "Feature", "properties": {"count": 51}, "geometry": {"type": "Polygon", "coordinates": [[[-114.13, 54.22], [-114.12, 54.22], [-114.12, 54.230000000000004], [-114.13, 54.230000000000004], [-114.13, 54.22]]]}}, {"type": "Feature", "properties": {"count": 78}, "geometry": {"type": "Polygon", "coordinates": [[[-114.14, 54.21], [-114.13, 54.21], [-114.13, 54.22], [-114.14, 54.22], [-114.14, 54.21]]]}}, {"type": "Feature", "properties": {"count": 37}, "geometry": {"type": "Polygon", "coordinates": [[[-114.12, 54.21], [-114.11, 54.21], [-114.11, 54.22], [-114.12, 54.22], [-114.12, 54.21]]]}}, {"type": "Feature", "properties": {"count": 26}, "geometry": {"type": "Polygon", "coordinates": [[[-114.15, 54.21], [-114.14, 54.21], [-114.14, 54.22], [-114.15, 54.22], [-114.15, 54.21]]]}}, {"type": "Feature", "properties": {"count": 3}, "geometry": {"type": "Polygon", "coordinates": [[[-114.11, 54.2], [-114.10000000000001, 54.2], [-114.10000000000001, 54.21], [-114.11, 54.21], [-114.11, 54.2]]]}}, {"type": "Feature", "properties": {"count": 4}, "geometry": {"type": "Polygon", "coordinates": [[[-114.11, 54.21], [-114.10000000000001, 54.21], [-114.10000000000001, 54.22], [-114.11, 54.22], [-114.11, 54.21]]]}}, {"type": "Feature", "properties": {"count": 60}, "geometry": {"type": "Polygon", "coordinates": [[[-114.15, 54.22], [-114.14, 54.22], [-114.14, 54.230000000000004], [-114.15, 54.230000000000004], [-114.15, 54.22]]]}}, {"type": "Feature", "properties": {"count": 86}, "geometry": {"type": "Polygon", "coordinates": [[[-114.14, 54.22], [-114.13, 54.22], [-114.13, 54.230000000000004], [-114.14, 54.230000000000004], [-114.14, 54.22]]]}}, {"type": "Feature", "properties": {"count": 54}, "geometry": {"type": "Polygon", "coordinates": [[[-114.13, 54.230000000000004], [-114.12, 54.230000000000004], [-114.12, 54.24], [-114.13, 54.24], [-114.13, 54.230000000000004]]]}}, {"type": "Feature", "properties": {"count": 95}, "geometry": {"type": "Polygon", "coordinates": [[[-114.14, 54.230000000000004], [-114.13, 54.230000000000004], [-114.13, 54.24], [-114.14, 54.24], [-114.14, 54.230000000000004]]]}}, {"type": "Feature", "properties": {"count": 70}, "geometry": {"type": "Polygon", "coordinates": [[[-114.14, 54.24], [-114.13, 54.24], [-114.13, 54.25], [-114.14, 54.25], [-114.14, 54.24]]]}}, {"type": "Feature", "properties": {"count": 86}, "geometry": {"type": "Polygon", "coordinates": [[[-114.15, 54.230000000000004], [-114.14, 54.230000000000004], [-114.14, 54.24], [-114.15, 54.24], [-114.15, 54.230000000000004]]]}}, {"type": "Feature", "properties": {"count": 11}, "geometry": {"type": "Polygon", "coordinates": [[[-114.12, 54.22], [-114.11, 54.22], [-114.11, 54.230000000000004], [-114.12, 54.230000000000004], [-114.12, 54.22]]]}}, {"type": "Feature", "properties": {"count": 22}, "geometry": {"type": "Polygon", "coordinates": [[[-114.16, 54.230000000000004], [-114.15, 54.230000000000004], [-114.15, 54.24], [-114.16, 54.24], [-114.16, 54.230000000000004]]]}}, {"type": "Feature", "properties": {"count": 9}, "geometry": {"type": "Polygon", "coordinates": [[[-114.12, 54.230000000000004], [-114.11, 54.230000000000004], [-114.11, 54.24], [-114.12, 54.24], [-114.12, 54.230000000000004]]]}}, {"type": "Feature", "properties": {"count": 115}, "geometry": {"type": "Polygon", "coordinates": [[[-114.15, 54.24], [-114.14, 54.24], [-114.14, 54.25], [-114.15, 54.25], [-114.15, 54.24]]]}}, {"type": "Feature", "properties": {"count": 10}, "geometry": {"type": "Polygon", "coordinates": [[[-114.16, 54.22], [-114.15, 54.22], [-114.15, 54.230000000000004], [-114.16, 54.230000000000004], [-114.16, 54.22]]]}}, {"type": "Feature", "properties": {"count": 70}, "geometry": {"type": "Polygon", "coordinates": [[[-114.16, 54.24], [-114.15, 54.24], [-114.15, 54.25], [-114.16, 54.25], [-114.16, 54.24]]]}}, {"type": "Feature", "properties": {"count": 45}, "geometry": {"type": "Polygon", "coordinates": [[[-114.14, 54.25], [-114.13, 54.25], [-114.13, 54.26], [-114.14, 54.26], [-114.14, 54.25]]]}}, {"type": "Feature", "properties": {"count": 74}, "geometry": {"type": "Polygon", "coordinates": [[[-114.15, 54.25], [-114.14, 54.25], [-114.14, 54.26], [-114.15, 54.26], [-114.15, 54.25]]]}}, {"type": "Feature", "properties": {"count": 75}, "geometry": {"type": "Polygon", "coordinates": [[[-114.16, 54.25], [-114.15, 54.25], [-114.15, 54.26], [-114.16, 54.26], [-114.16, 54.25]]]}}, {"type": "Feature", "properties": {"count": 18}, "geometry": {"type": "Polygon", "coordinates": [[[-114.13, 54.24], [-114.12, 54.24], [-114.12, 54.25], [-114.13, 54.25], [-114.13, 54.24]]]}}, {"type": "Feature", "properties": {"count": 12}, "geometry": {"type": "Polygon", "coordinates": [[[-114.13, 54.25], [-114.12, 54.25], [-114.12, 54.26], [-114.13, 54.26], [-114.13, 54.25]]]}}, {"type": "Feature", "properties": {"count": 10}, "geometry": {"type": "Polygon", "coordinates": [[[-114.17, 54.24], [-114.16, 54.24], [-114.16, 54.25], [-114.17, 54.25], [-114.17, 54.24]]]}}, {"type": "Feature", "properties": {"count": 114}, "geometry": {"type": "Polygon", "coordinates": [[[-114.16, 54.26], [-114.15, 54.26], [-114.15, 54.27], [-114.16, 54.27], [-114.16, 54.26]]]}}, {"type": "Feature", "properties": {"count": 3}, "geometry": {"type": "Polygon", "coordinates": [[[-114.12, 54.24], [-114.11, 54.24], [-114.11, 54.25], [-114.12, 54.25], [-114.12, 54.24]]]}}, {"type": "Feature", "properties": {"count": 26}, "geometry": {"type": "Polygon", "coordinates": [[[-114.17, 54.25], [-114.16, 54.25], [-114.16, 54.26], [-114.17, 54.26], [-114.17, 54.25]]]}}, {"type": "Feature", "properties": {"count": 35}, "geometry": {"type": "Polygon", "coordinates": [[[-114.15, 54.27], [-114.14, 54.27], [-114.14, 54.28], [-114.15, 54.28], [-114.15, 54.27]]]}}, {"type": "Feature", "properties": {"count": 72}, "geometry": {"type": "Polygon", "coordinates": [[[-114.16, 54.27], [-114.15, 54.27], [-114.15, 54.28], [-114.16, 54.28], [-114.16, 54.27]]]}}, {"type": "Feature", "properties": {"count": 90}, "geometry": {"type": "Polygon", "coordinates": [[[-114.15, 54.26], [-114.14, 54.26], [-114.14, 54.27], [-114.15, 54.27], [-114.15, 54.26]]]}}, {"type": "Feature", "properties": {"count": 67}, "geometry": {"type": "Polygon", "coordinates": [[[-114.17, 54.26], [-114.16, 54.26], [-114.16, 54.27], [-114.17, 54.27], [-114.17, 54.26]]]}}, {"type": "Feature", "properties": {"count": 23}, "geometry": {"type": "Polygon", "coordinates": [[[-114.14, 54.26], [-114.13, 54.26], [-114.13, 54.27], [-114.14, 54.27], [-114.14, 54.26]]]}}, {"type": "Feature", "properties": {"count": 7}, "geometry": {"type": "Polygon", "coordinates": [[[-114.18, 54.26], [-114.17, 54.26], [-114.17, 54.27], [-114.18, 54.27], [-114.18, 54.26]]]}}, {"type": "Feature", "properties": {"count": 87}, "geometry": {"type": "Polygon", "coordinates": [[[-114.17, 54.27], [-114.16, 54.27], [-114.16, 54.28], [-114.17, 54.28], [-114.17, 54.27]]]}}, {"type": "Feature", "properties": {"count": 10}, "geometry": {"type": "Polygon", "coordinates": [[[-114.14, 54.27], [-114.13, 54.27], [-114.13, 54.28], [-114.14, 54.28], [-114.14, 54.27]]]}}, {"type": "Feature", "properties": {"count": 31}, "geometry": {"type": "Polygon", "coordinates": [[[-114.18, 54.27], [-114.17, 54.27], [-114.17, 54.28], [-114.18, 54.28], [-114.18, 54.27]]]}}, {"type": "Feature", "properties": {"count": 4}, "geometry": {"type": "Polygon", "coordinates": [[[-114.13, 54.26], [-114.12, 54.26], [-114.12, 54.27], [-114.13, 54.27], [-114.13, 54.26]]]}}, {"type": "Feature", "properties": {"count": 3}, "geometry": {"type": "Polygon", "coordinates": [[[-114.18, 54.25], [-114.17, 54.25], [-114.17, 54.26], [-114.18, 54.26], [-114.18, 54.25]]]}}, {"type": "Feature", "properties": {"count": 38}, "geometry": {"type": "Polygon", "coordinates": [[[-114.16, 54.29], [-114.15, 54.29], [-114.15, 54.300000000000004], [-114.16, 54.300000000000004], [-114.16, 54.29]]]}}, {"type": "Feature", "properties": {"count": 108}, "geometry": {"type": "Polygon", "coordinates": [[[-114.17, 54.28], [-114.16, 54.28], [-114.16, 54.29], [-114.17, 54.29], [-114.17, 54.28]]]}}, {"type": "Feature", "properties": {"count": 75}, "geometry": {"type": "Polygon", "coordinates": [[[-114.16, 54.28], [-114.15, 54.28], [-114.15, 54.29], [-114.16, 54.29], [-114.16, 54.28]]]}}, {"type": "Feature", "properties": {"count": 83}, "geometry": {"type": "Polygon", "coordinates": [[[-114.17, 54.29], [-114.16, 54.29], [-114.16, 54.300000000000004], [-114.17, 54.300000000000004], [-114.17, 54.29]]]}}, {"type": "Feature", "properties": {"count": 63}, "geometry": {"type": "Polygon", "coordinates": [[[-114.18, 54.28], [-114.17, 54.28], [-114.17, 54.29], [-114.18, 54.29], [-114.18, 54.28]]]}}, {"type": "Feature", "properties": {"count": 27}, "geometry": {"type": "Polygon", "coordinates": [[[-114.15, 54.28], [-114.14, 54.28], [-114.14, 54.29], [-114.15, 54.29], [-114.15, 54.28]]]}}, {"type": "Feature", "properties": {"count": 8}, "geometry": {"type": "Polygon", "coordinates": [[[-114.15, 54.29], [-114.14, 54.29], [-114.14, 54.300000000000004], [-114.15, 54.300000000000004], [-114.15, 54.29]]]}}, {"type": "Feature", "properties": {"count": 105}, "geometry": {"type": "Polygon", "coordinates": [[[-114.18, 54.29], [-114.17, 54.29], [-114.17, 54.300000000000004], [-114.18, 54.300000000000004], [-114.18, 54.29]]]}}, {"type": "Feature", "properties": {"count": 3}, "geometry": {"type": "Polygon", "coordinates": [[[-114.19, 54.27], [-114.18, 54.27], [-114.18, 54.28], [-114.19, 54.28], [-114.19, 54.27]]]}}, {"type": "Feature", "properties": {"count": 9}, "geometry": {"type": "Polygon", "coordinates": [[[-114.19, 54.28], [-114.18, 54.28], [-114.18, 54.29], [-114.19, 54.29], [-114.19, 54.28]]]}}, {"type": "Feature", "properties": {"count": 2}, "geometry": {"type": "Polygon", "coordinates": [[[-114.14, 54.28], [-114.13, 54.28], [-114.13, 54.29], [-114.14, 54.29], [-114.14, 54.28]]]}}, {"type": "Feature", "properties": {"count": 19}, "geometry": {"type": "Polygon", "coordinates": [[[-114.16, 54.300000000000004], [-114.15, 54.300000000000004], [-114.15, 54.31], [-114.16, 54.31], [-114.16, 54.300000000000004]]]}}, {"type": "Feature", "properties": {"count": 77}, "geometry": {"type": "Polygon", "coordinates": [[[-114.18, 54.300000000000004], [-114.17, 54.300000000000004], [-114.17, 54.31], [-114.18, 54.31], [-114.18, 54.300000000000004]]]}}, {"type": "Feature", "properties": {"count": 60}, "geometry": {"type": "Polygon", "coordinates": [[[-114.17, 54.300000000000004], [-114.16, 54.300000000000004], [-114.16, 54.31], [-114.17, 54.31], [-114.17, 54.300000000000004]]]}}, {"type": "Feature", "properties": {"count": 99}, "geometry": {"type": "Polygon", "coordinates": [[[-114.18, 54.31], [-114.17, 54.31], [-114.17, 54.32], [-114.18, 54.32], [-114.18, 54.31]]]}}, {"type": "Feature", "properties": {"count": 36}, "geometry": {"type": "Polygon", "coordinates": [[[-114.19, 54.29], [-114.18, 54.29], [-114.18, 54.300000000000004], [-114.19, 54.300000000000004], [-114.19, 54.29]]]}}, {"type": "Feature", "properties": {"count": 69}, "geometry": {"type": "Polygon", "coordinates": [[[-114.19, 54.300000000000004], [-114.18, 54.300000000000004], [-114.18, 54.31], [-114.19, 54.31], [-114.19, 54.300000000000004]]]}}, {"type": "Feature", "properties": {"count": 4}, "geometry": {"type": "Polygon", "coordinates": [[[-114.15, 54.300000000000004], [-114.14, 54.300000000000004], [-114.14, 54.31], [-114.15, 54.31], [-114.15, 54.300000000000004]]]}}, {"type": "Feature", "properties": {"count": 2}, "geometry": {"type": "Polygon", "coordinates": [[[-114.2, 54.29], [-114.19, 54.29], [-114.19, 54.300000000000004], [-114.2, 54.300000000000004], [-114.2, 54.29]]]}}, {"type": "Feature", "properties": {"count": 18}, "geometry": {"type": "Polygon", "coordinates": [[[-114.2, 54.300000000000004], [-114.19, 54.300000000000004], [-114.19, 54.31], [-114.2, 54.31], [-114.2, 54.300000000000004]]]}}, {"type": "Feature", "properties": {"count": 10}, "geometry": {"type": "Polygon", "coordinates": [[[-114.17, 54.32], [-114.16, 54.32], [-114.16, 54.33], [-114.17, 54.33], [-114.17, 54.32]]]}}, {"type": "Feature", "properties": {"count": 82}, "geometry": {"type": "Polygon", "coordinates": [[[-114.19, 54.32], [-114.18, 54.32], [-114.18, 54.33], [-114.19, 54.33], [-114.19, 54.32]]]}}, {"type": "Feature", "properties": {"count": 47}, "geometry": {"type": "Polygon", "coordinates": [[[-114.18, 54.32], [-114.17, 54.32], [-114.17, 54.33], [-114.18, 54.33], [-114.18, 54.32]]]}}, {"type": "Feature", "properties": {"count": 116}, "geometry": {"type": "Polygon", "coordinates": [[[-114.19, 54.31], [-114.18, 54.31], [-114.18, 54.32], [-114.19, 54.32], [-114.19, 54.31]]]}}, {"type": "Feature", "properties": {"count": 74}, "geometry": {"type": "Polygon", "coordinates": [[[-114.2, 54.32], [-114.19, 54.32], [-114.19, 54.33], [-114.2, 54.33], [-114.2, 54.32]]]}}, {"type": "Feature", "properties": {"count": 43}, "geometry": {"type": "Polygon", "coordinates": [[[-114.17, 54.31], [-114.16, 54.31], [-114.16, 54.32], [-114.17, 54.32], [-114.17, 54.31]]]}}, {"type": "Feature", "properties": {"count": 42}, "geometry": {"type": "Polygon", "coordinates": [[[-114.2, 54.31], [-114.19, 54.31], [-114.19, 54.32], [-114.2, 54.32], [-114.2, 54.31]]]}}, {"type": "Feature", "properties": {"count": 3}, "geometry": {"type": "Polygon", "coordinates": [[[-114.16, 54.32], [-114.15, 54.32], [-114.15, 54.33], [-114.16, 54.33], [-114.16, 54.32]]]}}, {"type": "Feature", "properties": {"count": 9}, "geometry": {"type": "Polygon", "coordinates": [[[-114.16, 54.31], [-114.15, 54.31], [-114.15, 54.32], [-114.16, 54.32], [-114.16, 54.31]]]}}, {"type": "Feature", "properties": {"count": 27}, "geometry": {"type": "Polygon", "coordinates": [[[-114.21000000000001, 54.32], [-114.2, 54.32], [-114.2, 54.33], [-114.21000000000001, 54.33], [-114.21000000000001, 54.32]]]}}, {"type": "Feature", "properties": {"count": 9}, "geometry": {"type": "Polygon", "coordinates": [[[-114.18, 54.34], [-114.17, 54.34], [-114.17, 54.35], [-114.18, 54.35], [-114.18, 54.34]]]}}, {"type": "Feature", "properties": {"count": 97}, "geometry": {"type": "Polygon", "coordinates": [[[-114.2, 54.34], [-114.19, 54.34], [-114.19, 54.35], [-114.2, 54.35], [-114.2, 54.34]]]}}, {"type": "Feature", "properties": {"count": 75}, "geometry": {"type": "Polygon", "coordinates": [[[-114.19, 54.33], [-114.18, 54.33], [-114.18, 54.34], [-114.19, 54.34], [-114.19, 54.33]]]}}, {"type": "Feature", "properties": {"count": 99}, "geometry": {"type": "Polygon", "coordinates": [[[-114.2, 54.33], [-114.19, 54.33], [-114.19, 54.34], [-114.2, 54.34], [-114.2, 54.33]]]}}, {"type": "Feature", "properties": {"count": 47}, "geometry": {"type": "Polygon", "coordinates": [[[-114.21000000000001, 54.33], [-114.2, 54.33], [-114.2, 54.34], [-114.21000000000001, 54.34], [-114.21000000000001, 54.33]]]}}, {"type": "Feature", "properties": {"count": 31}, "geometry": {"type": "Polygon", "coordinates": [[[-114.18, 54.33], [-114.17, 54.33], [-114.17, 54.34], [-114.18, 54.34], [-114.18, 54.33]]]}}, {"type": "Feature", "properties": {"count": 7}, "geometry": {"type": "Polygon", "coordinates": [[[-114.17, 54.33], [-114.16, 54.33], [-114.16, 54.34], [-114.17, 54.34], [-114.17, 54.33]]]}}, {"type": "Feature", "properties": {"count": 3}, "geometry": {"type": "Polygon", "coordinates": [[[-114.17, 54.34], [-114.16, 54.34], [-114.16, 54.35], [-114.17, 54.35], [-114.17, 54.34]]]}}, {"type": "Feature", "properties": {"count": 89}, "geometry": {"type": "Polygon", "coordinates": [[[-114.21000000000001, 54.34], [-114.2, 54.34], [-114.2, 54.35], [-114.21000000000001, 54.35], [-114.21000000000001, 54.34]]]}}, {"type": "Feature", "properties": {"count": 45}, "geometry": {"type": "Polygon", "coordinates": [[[-114.22, 54.34], [-114.21000000000001, 54.34], [-114.21000000000001, 54.35], [-114.22, 54.35], [-114.22, 54.34]]]}}, {"type": "Feature", "properties": {"count": 48}, "geometry": {"type": "Polygon", "coordinates": [[[-114.19, 54.34], [-114.18, 54.34], [-114.18, 54.35], [-114.19, 54.35], [-114.19, 54.34]]]}}, {"type": "Feature", "properties": {"count": 8}, "geometry": {"type": "Polygon", "coordinates": [[[-114.19, 54.36], [-114.18, 54.36], [-114.18, 54.370000000000005], [-114.19, 54.370000000000005], [-114.19, 54.36]]]}}, {"type": "Feature", "properties": {"count": 94}, "geometry": {"type": "Polygon", "coordinates": [[[-114.21000000000001, 54.35], [-114.2, 54.35], [-114.2, 54.36], [-114.21000000000001, 54.36], [-114.21000000000001, 54.35]]]}}, {"type": "Feature", "properties": {"count": 55}, "geometry": {"type": "Polygon", "coordinates": [[[-114.2, 54.35], [-114.19, 54.35], [-114.19, 54.36], [-114.2, 54.36], [-114.2, 54.35]]]}}, {"type": "Feature", "properties": {"count": 89}, "geometry": {"type": "Polygon", "coordinates": [[[-114.21000000000001, 54.36], [-114.2, 54.36], [-114.2, 54.370000000000005], [-114.21000000000001, 54.370000000000005], [-114.21000000000001, 54.36]]]}}, {"type": "Feature", "properties": {"count": 62}, "geometry": {"type": "Polygon", "coordinates": [[[-114.22, 54.35], [-114.21000000000001, 54.35], [-114.21000000000001, 54.36], [-114.22, 54.36], [-114.22, 54.35]]]}}, {"type": "Feature", "properties": {"count": 21}, "geometry": {"type": "Polygon", "coordinates": [[[-114.19, 54.35], [-114.18, 54.35], [-114.18, 54.36], [-114.19, 54.36], [-114.19, 54.35]]]}}, {"type": "Feature", "properties": {"count": 6}, "geometry": {"type": "Polygon", "coordinates": [[[-114.18, 54.35], [-114.17, 54.35], [-114.17, 54.36], [-114.18, 54.36], [-114.18, 54.35]]]}}, {"type": "Feature", "properties": {"count": 21}, "geometry": {"type": "Polygon", "coordinates": [[[-114.23, 54.35], [-114.22, 54.35], [-114.22, 54.36], [-114.23, 54.36], [-114.23, 54.35]]]}}, {"type": "Feature", "properties": {"count": 7}, "geometry": {"type": "Polygon", "coordinates": [[[-114.22, 54.33], [-114.21000000000001, 54.33], [-114.21000000000001, 54.34], [-114.22, 54.34], [-114.22, 54.33]]]}}, {"type": "Feature", "properties": {"count": 11}, "geometry": {"type": "Polygon", "coordinates": [[[-114.2, 54.370000000000005], [-114.19, 54.370000000000005], [-114.19, 54.38], [-114.2, 54.38], [-114.2, 54.370000000000005]]]}}, {"type": "Feature", "properties": {"count": 92}, "geometry": {"type": "Polygon", "coordinates": [[[-114.22, 54.370000000000005], [-114.21000000000001, 54.370000000000005], [-114.21000000000001, 54.38], [-114.22, 54.38], [-114.22, 54.370000000000005]]]}}, {"type": "Feature", "properties": {"count": 48}, "geometry": {"type": "Polygon", "coordinates": [[[-114.21000000000001, 54.370000000000005], [-114.2, 54.370000000000005], [-114.2, 54.38], [-114.21000000000001, 54.38], [-114.21000000000001, 54.370000000000005]]]}}, {"type": "Feature", "properties": {"count": 91}, "geometry": {"type": "Polygon", "coordinates": [[[-114.22, 54.36], [-114.21000000000001, 54.36], [-114.21000000000001, 54.370000000000005], [-114.22, 54.370000000000005], [-114.22, 54.36]]]}}, {"type": "Feature", "properties": {"count": 45}, "geometry": {"type": "Polygon", "coordinates": [[[-114.23, 54.36], [-114.22, 54.36], [-114.22, 54.370000000000005], [-114.23, 54.370000000000005], [-114.23, 54.36]]]}}, {"type": "Feature", "properties": {"count": 51}, "geometry": {"type": "Polygon", "coordinates": [[[-114.2, 54.36], [-114.19, 54.36], [-114.19, 54.370000000000005], [-114.2, 54.370000000000005], [-114.2, 54.36]]]}}, {"type": "Feature", "properties": {"count": 5}, "geometry": {"type": "Polygon", "coordinates": [[[-114.19, 54.370000000000005], [-114.18, 54.370000000000005], [-114.18, 54.38], [-114.19, 54.38], [-114.19, 54.370000000000005]]]}}, {"type": "Feature", "properties": {"count": 84}, "geometry": {"type": "Polygon", "coordinates": [[[-114.23, 54.370000000000005], [-114.22, 54.370000000000005], [-114.22, 54.38], [-114.23, 54.38], [-114.23, 54.370000000000005]]]}}, {"type": "Feature", "properties": {"count": 29}, "geometry": {"type": "Polygon", "coordinates": [[[-114.24000000000001, 54.370000000000005], [-114.23, 54.370000000000005], [-114.23, 54.38], [-114.24000000000001, 54.38], [-114.24000000000001, 54.370000000000005]]]}}, {"type": "Feature", "properties": {"count": 10}, "geometry": {"type": "Polygon", "coordinates": [[[-114.24000000000001, 54.36], [-114.23, 54.36], [-114.23, 54.370000000000005], [-114.24000000000001, 54.370000000000005], [-114.24000000000001, 54.36]]]}}, {"type": "Feature", "properties": {"count": 3}, "geometry": {"type": "Polygon", "coordinates": [[[-114.18, 54.36], [-114.17, 54.36], [-114.17, 54.370000000000005], [-114.18, 54.370000000000005], [-114.18, 54.36]]]}}, {"type": "Feature", "properties": {"count": 11}, "geometry": {"type": "Polygon", "coordinates": [[[-114.21000000000001, 54.39], [-114.2, 54.39], [-114.2, 54.4], [-114.21000000000001, 54.4], [-114.21000000000001, 54.39]]]}}, {"type": "Feature", "properties": {"count": 65}, "geometry": {"type": "Polygon", "coordinates": [[[-114.22, 54.38], [-114.21000000000001, 54.38], [-114.21000000000001, 54.39], [-114.22, 54.39], [-114.22, 54.38]]]}}, {"type": "Feature", "properties": {"count": 100}, "geometry": {"type": "Polygon", "coordinates": [[[-114.23, 54.39], [-114.22, 54.39], [-114.22, 54.4], [-114.23, 54.4], [-114.23, 54.39]]]}}, {"type": "Feature", "properties": {"count": 55}, "geometry": {"type": "Polygon", "coordinates": [[[-114.24000000000001, 54.38], [-114.23, 54.38], [-114.23, 54.39], [-114.24000000000001, 54.39], [-114.24000000000001, 54.38]]]}}, {"type": "Feature", "properties": {"count": 85}, "geometry": {"type": "Polygon", "coordinates": [[[-114.23, 54.38], [-114.22, 54.38], [-114.22, 54.39], [-114.23, 54.39], [-114.23, 54.38]]]}}, {"type": "Feature", "properties": {"count": 25}, "geometry": {"type": "Polygon", "coordinates": [[[-114.21000000000001, 54.38], [-114.2, 54.38], [-114.2, 54.39], [-114.21000000000001, 54.39], [-114.21000000000001, 54.38]]]}}, {"type": "Feature", "properties": {"count": 8}, "geometry": {"type": "Polygon", "coordinates": [[[-114.2, 54.38], [-114.19, 54.38], [-114.19, 54.39], [-114.2, 54.39], [-114.2, 54.38]]]}}, {"type": "Feature", "properties": {"count": 3}, "geometry": {"type": "Polygon", "coordinates": [[[-114.2, 54.39], [-114.19, 54.39], [-114.19, 54.4], [-114.2, 54.4], [-114.2, 54.39]]]}}, {"type": "Feature", "properties": {"count": 17}, "geometry": {"type": "Polygon", "coordinates": [[[-114.25, 54.38], [-114.24000000000001, 54.38], [-114.24000000000001, 54.39], [-114.25, 54.39], [-114.25, 54.38]]]}}, {"type": "Feature", "properties": {"count": 48}, "geometry": {"type": "Polygon", "coordinates": [[[-114.22, 54.39], [-114.21000000000001, 54.39], [-114.21000000000001, 54.4], [-114.22, 54.4], [-114.22, 54.39]]]}}, {"type": "Feature", "properties": {"count": 9}, "geometry": {"type": "Polygon", "coordinates": [[[-114.22, 54.410000000000004], [-114.21000000000001, 54.410000000000004], [-114.21000000000001, 54.42], [-114.22, 54.42], [-114.22, 54.410000000000004]]]}}, {"type": "Feature", "properties": {"count": 53}, "geometry": {"type": "Polygon", "coordinates": [[[-114.23, 54.4], [-114.22, 54.4], [-114.22, 54.410000000000004], [-114.23, 54.410000000000004], [-114.23, 54.4]]]}}, {"type": "Feature", "properties": {"count": 80}, "geometry": {"type": "Polygon", "coordinates": [[[-114.24000000000001, 54.410000000000004], [-114.23, 54.410000000000004], [-114.23, 54.42], [-114.24000000000001, 54.42], [-114.24000000000001, 54.410000000000004]]]}}, {"type": "Feature", "properties": {"count": 64}, "geometry": {"type": "Polygon", "coordinates": [[[-114.25, 54.4], [-114.24000000000001, 54.4], [-114.24000000000001, 54.410000000000004], [-114.25, 54.410000000000004], [-114.25, 54.4]]]}}, {"type": "Feature", "properties": {"count": 90}, "geometry": {"type": "Polygon", "coordinates": [[[-114.24000000000001, 54.4], [-114.23, 54.4], [-114.23, 54.410000000000004], [-114.24000000000001, 54.410000000000004], [-114.24000000000001, 54.4]]]}}, {"type": "Feature", "properties": {"count": 94}, "geometry": {"type": "Polygon", "coordinates": [[[-114.24000000000001, 54.39], [-114.23, 54.39], [-114.23, 54.4], [-114.24000000000001, 54.4], [-114.24000000000001, 54.39]]]}}, {"type": "Feature", "properties": {"count": 49}, "geometry": {"type": "Polygon", "coordinates": [[[-114.25, 54.39], [-114.24000000000001, 54.39], [-114.24000000000001, 54.4], [-114.25, 54.4], [-114.25, 54.39]]]}}, {"type": "Feature", "properties": {"count": 6}, "geometry": {"type": "Polygon", "coordinates": [[[-114.21000000000001, 54.4], [-114.2, 54.4], [-114.2, 54.410000000000004], [-114.21000000000001, 54.410000000000004], [-114.21000000000001, 54.4]]]}}, {"type": "Feature", "properties": {"count": 22}, "geometry": {"type": "Polygon", "coordinates": [[[-114.22, 54.4], [-114.21000000000001, 54.4], [-114.21000000000001, 54.410000000000004], [-114.22, 54.410000000000004], [-114.22, 54.4]]]}}, {"type": "Feature", "properties": {"count": 29}, "geometry": {"type": "Polygon", "coordinates": [[[-114.26, 54.4], [-114.25, 54.4], [-114.25, 54.410000000000004], [-114.26, 54.410000000000004], [-114.26, 54.4]]]}}, {"type": "Feature", "properties": {"count": 14}, "geometry": {"type": "Polygon", "coordinates": [[[-114.23, 54.42], [-114.22, 54.42], [-114.22, 54.43], [-114.23, 54.43], [-114.23, 54.42]]]}}, {"type": "Feature", "properties": {"count": 47}, "geometry": {"type": "Polygon", "coordinates": [[[-114.24000000000001, 54.42], [-114.23, 54.42], [-114.23, 54.43], [-114.24000000000001, 54.43], [-114.24000000000001, 54.42]]]}}, {"type": "Feature", "properties": {"count": 91}, "geometry": {"type": "Polygon", "coordinates": [[[-114.25, 54.42], [-114.24000000000001, 54.42], [-114.24000000000001, 54.43], [-114.25, 54.43], [-114.25, 54.42]]]}}, {"type": "Feature", "properties": {"count": 85}, "geometry": {"type": "Polygon", "coordinates": [[[-114.25, 54.410000000000004], [-114.24000000000001, 54.410000000000004], [-114.24000000000001, 54.42], [-114.25, 54.42], [-114.25, 54.410000000000004]]]}}, {"type": "Feature", "properties": {"count": 54}, "geometry": {"type": "Polygon", "coordinates": [[[-114.26, 54.410000000000004], [-114.25, 54.410000000000004], [-114.25, 54.42], [-114.26, 54.42], [-114.26, 54.410000000000004]]]}}, {"type": "Feature", "properties": {"count": 35}, "geometry": {"type": "Polygon", "coordinates": [[[-114.23, 54.410000000000004], [-114.22, 54.410000000000004], [-114.22, 54.42], [-114.23, 54.42], [-114.23, 54.410000000000004]]]}}, {"type": "Feature", "properties": {"count": 5}, "geometry": {"type": "Polygon", "coordinates": [[[-114.22, 54.42], [-114.21000000000001, 54.42], [-114.21000000000001, 54.43], [-114.22, 54.43], [-114.22, 54.42]]]}}, {"type": "Feature", "properties": {"count": 48}, "geometry": {"type": "Polygon", "coordinates": [[[-114.27, 54.42], [-114.26, 54.42], [-114.26, 54.43], [-114.27, 54.43], [-114.27, 54.42]]]}}, {"type": "Feature", "properties": {"count": 10}, "geometry": {"type": "Polygon", "coordinates": [[[-114.27, 54.410000000000004], [-114.26, 54.410000000000004], [-114.26, 54.42], [-114.27, 54.42], [-114.27, 54.410000000000004]]]}}, {"type": "Feature", "properties": {"count": 2}, "geometry": {"type": "Polygon", "coordinates": [[[-114.27, 54.4], [-114.26, 54.4], [-114.26, 54.410000000000004], [-114.27, 54.410000000000004], [-114.27, 54.4]]]}}, {"type": "Feature", "properties": {"count": 2}, "geometry": {"type": "Polygon", "coordinates": [[[-114.24000000000001, 54.44], [-114.23, 54.44], [-114.23, 54.45], [-114.24000000000001, 54.45], [-114.24000000000001, 54.44]]]}}, {"type": "Feature", "properties": {"count": 42}, "geometry": {"type": "Polygon", "coordinates": [[[-114.25, 54.43], [-114.24000000000001, 54.43], [-114.24000000000001, 54.44], [-114.25, 54.44], [-114.25, 54.43]]]}}, {"type": "Feature", "properties": {"count": 2}, "geometry": {"type": "Polygon", "coordinates": [[[-114.26, 54.44], [-114.25, 54.44], [-114.25, 54.45], [-114.26, 54.45], [-114.26, 54.44]]]}}, {"type": "Feature", "properties": {"count": 93}, "geometry": {"type": "Polygon", "coordinates": [[[-114.26, 54.42], [-114.25, 54.42], [-114.25, 54.43], [-114.26, 54.43], [-114.26, 54.42]]]}}, {"type": "Feature", "properties": {"count": 15}, "geometry": {"type": "Polygon", "coordinates": [[[-114.27, 54.43], [-114.26, 54.43], [-114.26, 54.44], [-114.27, 54.44], [-114.27, 54.43]]]}}, {"type": "Feature", "properties": {"count": 31}, "geometry": {"type": "Polygon", "coordinates": [[[-114.26, 54.43], [-114.25, 54.43], [-114.25, 54.44], [-114.26, 54.44], [-114.26, 54.43]]]}}, {"type": "Feature", "properties": {"count": 21}, "geometry": {"type": "Polygon", "coordinates": [[[-114.24000000000001, 54.43], [-114.23, 54.43], [-114.23, 54.44], [-114.24000000000001, 54.44], [-114.24000000000001, 54.43]]]}}, {"type": "Feature", "properties": {"count": 6}, "geometry": {"type": "Polygon", "coordinates": [[[-114.23, 54.43], [-114.22, 54.43], [-114.22, 54.44], [-114.23, 54.44], [-114.23, 54.43]]]}}, {"type": "Feature", "properties": {"count": 3}, "geometry": {"type": "Polygon", "coordinates": [[[-114.25, 54.44], [-114.24000000000001, 54.44], [-114.24000000000001, 54.45], [-114.25, 54.45], [-114.25, 54.44]]]}}, {"type": "Feature", "properties": {"count": 3}, "geometry": {"type": "Polygon", "coordinates": [[[-114.28, 54.42], [-114.27, 54.42], [-114.27, 54.43], [-114.28, 54.43], [-114.28, 54.42]]]}}, {"type": "Feature", "properties": {"count": 3}, "geometry": {"type": "Polygon", "coordinates": [[[-114.28, 54.43], [-114.27, 54.43], [-114.27, 54.44], [-114.28, 54.44], [-114.28, 54.43]]]}}, {"type": "Feature", "properties": {"count": 3}, "geometry": {"type": "Polygon", "coordinates": [[[-113.95, 53.59], [-113.94, 53.59], [-113.94, 53.6], [-113.95, 53.6], [-113.95, 53.59]]]}}, {"type": "Feature", "properties": {"count": 2}, "geometry": {"type": "Polygon", "coordinates": [[[-114.17, 54.230000000000004], [-114.16, 54.230000000000004], [-114.16, 54.24], [-114.17, 54.24], [-114.17, 54.230000000000004]]]}}, {"type": "Feature", "properties": {"count": 4}, "geometry": {"type": "Polygon", "coordinates": [[[-114.21000000000001, 54.31], [-114.2, 54.31], [-114.2, 54.32], [-114.21000000000001, 54.32], [-114.21000000000001, 54.31]]]}}, {"type": "Feature", "properties": {"count": 4}, "geometry": {"type": "Polygon", "coordinates": [[[-114.23, 54.34], [-114.22, 54.34], [-114.22, 54.35], [-114.23, 54.35], [-114.23, 54.34]]]}}, {"type": "Feature", "properties": {"count": 3}, "geometry": {"type": "Polygon", "coordinates": [[[-114.24000000000001, 54.35], [-114.23, 54.35], [-114.23, 54.36], [-114.24000000000001, 54.36], [-114.24000000000001, 54.35]]]}}, {"type": "Feature", "properties": {"count": 5}, "geometry": {"type": "Polygon", "coordinates": [[[-114.25, 54.370000000000005], [-114.24000000000001, 54.370000000000005], [-114.24000000000001, 54.38], [-114.25, 54.38], [-114.25, 54.370000000000005]]]}}, {"type": "Feature", "properties": {"count": 8}, "geometry": {"type": "Polygon", "coordinates": [[[-114.26, 54.39], [-114.25, 54.39], [-114.25, 54.4], [-114.26, 54.4], [-114.26, 54.39]]]}}]}